id;name;disambiguatingDescription;description;longitude;latitude;streetAddress;postalCode;addressLocality;telephone;email;url;image;dateModified0553cf66-dc82-4081-96fe-e576cb981895;Grindelwald Taxiservice;Ihr Taxiservice in Grindelwald;<p><span style="scroll-margin-top: var(--fixed-header-height);"><span style="scroll-margin-top: var(--fixed-header-height);">Ich biete allgemeine Taxidienste, Flughafentransfers, Ankunft oder Abflug von allen Flughäfen in der Schweiz, Pannenhilfen unterwegs: das heisst Transfer mit Gepäck zum Hotel, Gepäcktransporte und Krankenfahrten.</span></span></p>;8.041487932205202;46.62416179048034;3818;Grindelwald;+41 76 606 08 54;info@grindelwald-taxiservice.ch;https://www.grindelwald-taxiservice.ch/;[{'@type': 'ImageObject', 'contentUrl': 'https://jrtagpimtsoch.sos-ch-dk-2.exoscale-cdn.com/catalog/9/3/d/2/93d257079e88af87630d395ba16f71eba600d949_Screenshot_2024_11_20_073503.png'}];2025-05-27T08:34:25+02:00
080b4e9d-e801-4ab5-8e88-2ec043484114;Heliskiing;Unberührte Hänge & staubender Pulverschnee;Ein Hauch von Kanada in der Jungfrau Region. Erlebe einen imposanten Helikopterflug entlang unserer majestätischen Berggipfel und geniesse anschliessend eine faszinierende und einmalige Abfahrt durch unberührten Tiefschnee hinunter in die weiss verschneiten Bergtäler.;7.913310527801515;46.58534309311322;In der Weid 217E;3822;Lauterbrunnen;+41 43 508 65 66;agl@air-glaciers.ch;https://www.air-glaciers.ch/de-ch/heliskiing;[{'@type': 'ImageObject', 'contentUrl': 'https://jrtagpimtsoch.sos-ch-dk-2.exoscale-cdn.com/catalog/e/d/7/b/ed7bd9b32152fe76a3e6fb67d973b69ad24e8b81_amazing_heli_power.jpg'}];2024-12-09T15:49:55+01:00
0a4d418a-ee4b-4196-8021-7c740343bd7a;Royal Ride;Wie King und Queen wirst du dich fühlen auf dem Freiluft-Balkon der Luftseilbahn Wengen-Männlichen.;<p>Geniesse die Fahrt von Wengen auf den Männlichen in den neuen, grosszügigen Kabinen. Ein Highlight dabei: der Freiluft-Balkon, der das Erlebnis auf ein königliches Niveau hebt. Tauche ein in unsere majestätische Natur- und Bergwelt und fühle dich wie King oder Queen.&nbsp;</p><p>Die Fahrt mit dem Freiluft-Balkon kostet nur CHF 5.00 zusätzlich.&nbsp;</p><p>Beachte, dass das Royal Ride Erlebnis ausschliesslich im Sommer angeboten wird.</p>;7.9214929;46.6062539;Wengiboden 1350f;3823;Wengen; +41 33 855 29 33;info@maennlichen.ch;https://www.maennlichen.ch/de/;[{'@type': 'ImageObject', 'contentUrl': 'https://jrtagpimtsoch.sos-ch-dk-2.exoscale-cdn.com/catalog/8/9/2/3/89237b64197187927a76f38c53baed89b3fb2968_Royal_Ride_LWM_by__8_.jpg'}];2024-12-23T16:36:46+01:00
0c2f4895-1fa3-40ee-b4dd-8e9f17c569eb;MiniMuseum Mürren;Das erste Schweizer Schaufenstermuseum.;Das MiniMuseum vermittelt allen Interessierten einen Zugang zur Geschichte von Mürren. Es prästentiert kultur- und sozialgeschichtlich wichtige Themen und stellt einen Bogen zur Gegenwart her. Das MiniMuseum Mürren ist eine Schaufensterausstellung, die jährlich erneuert wird.&nbsp;<div><br></div><div>Ausstellung 29. Dezember - 30. November 2025:</div><div>Das Symboltier im Lebensraum Berg</div><div><br></div><div><div class="page" title="Page 2"><div class="layoutArea"><div class="column"><p>Der Steinbock verkörpert als Symbol Kraft, Mut, Ent-<br>schlossenheit und Gewandtheit, ist trittsicher und<br>leichtfüssig, stolz, ausdauernd, zäh, sozial, team-<br>freudig, treu, genügsam und widerstandsfähig. Die-<br>sem starken majestätischen Tier, das in den unwirt-<br>lichsten alpinen Regionen überleben konnte, wurden<br>übernatürliche Kräfte und Eigenschaften zu geschrieben.&nbsp;</p><p>Diese wollte der Mensch auch haben, weshalb der Steinbock v.a. im Mittelalter und in der frühen Neuzeit zur «wandelnden Apotheke» wurde.&nbsp;Die in der Bergbevölkerung vorhandene Armut, Krankheiten und der Glaube an die mystischen Fähigkeiten des Steinbocks führten dazu, dass dieser als Quelle von Nahrung, Kleidern und Heilmitteln intensiv bejagt und schliesslich fast ausgerottet wurde.</p><div class="page" title="Page 2"><div class="layoutArea"><div class="column"><p><br></p><p><br></p></div></div></div></div></div></div></div><div><br></div><div><br></div>;7.8956059;46.5626272;Mürren;info@minimuseummuerren.ch;https://www.minimuseummuerren.ch/;[{'@type': 'ImageObject', 'contentUrl': 'https://jrtagpimtsoch.sos-ch-dk-2.exoscale-cdn.com/catalog/b/2/b/d/b2bd0228197cdaf891e063b8c4c7d40e3a851a6e_csm_MiniMuseum_Muerren__Station_3__2020_5389f7cd30.jpg'}];2025-01-11T09:50:44+01:00
1a4c0bb7-55a1-4717-a85c-2eb84938314d;Grindelwald 4 Kids;Komm vorbei und sei dabei! Lerne die Ponys im Gletscherdorf kennen und stelle deine Geschicklichkeit im Seilpark unter Beweis!;<p><strong>Mittwoch: Ponyplausch im Gletscherdorf</strong></p>
<ul>
<li>9.30 &ndash; 11.30 Uhr</li>
<li>Treffpunkt: Mettenbergstrasse 32, 3818 Grindelwald</li>
<li>5 &ndash; 16 Jahre</li>
<li>CHF 22 inkl. Zn&uuml;ni</li>
<li>Mitnehmen: Velohelm</li>
<li>Max Teilnehmer: 10</li>
</ul>
<p>&nbsp;</p>
<p><strong>Freitag: Indoorseilpark&nbsp;im Sportzentrum</strong></p>
<ul>
<li>10.00 &ndash; 12.30 Uhr</li>
<li>Treffpunkt: 10.00 Uhr vor dem Sportzentrum</li>
<li>Mindestgr&ouml;sse 140cm</li>
<li>CHF 15</li>
<li>Mitnehmen: Getr&auml;nke und evtl. Snacks</li>
</ul>
<p>Die Anmeldung ist nur am Schalter von Grindelwald Tourismus bis am Vortag um 15.00 Uhr m&ouml;glich.</p>
<p>&nbsp;</p>
<p>&nbsp;</p>;8.03555488586426;46.62344648930329;Dorfstrasse 110;3818;Grindelwald;+41 33 854 12 12;info@grindelwald.swiss;[{'@type': 'ImageObject', 'contentUrl': 'https://jrtagpimtsoch.sos-ch-dk-2.exoscale-cdn.com/catalog/5/6/8/7/568721e12f2cb9e50c00b8b8a3e375503e54218d_Grindelwald_4_Kids.jpg'}];2025-07-02T15:36:17+02:00
1a65211e-0bfb-4107-b2a5-6fa9a51cfafc;Grillstelle Niederbach bei Bort;<p>Nicht weit von der Station Bort (Firstbahn) befindet sich die gemütliche Grillstelle für die ganze Familie. Das Bächlein sowie die schöne Blumenwiese laden zum Spielen ein.</p><p>Zugang: Von der Station Bort ca. 10 Min. zu Fuss auf dem Wanderweg Richtung Bussalp (Höhenweg 1600m). Bei der Brücke</p>;8.050564527511598;46.6505114225253;3818;Grindelwald;0338541212;info@grindelwald.swiss;[{'@type': 'ImageObject', 'contentUrl': 'https://jrtagpimtsoch.sos-ch-dk-2.exoscale-cdn.com/catalog/2/f/4/d/2f4d0bc0303a5121a67424f6512f18125ae66892_2209_0562_by.davidbirri.jpg'}];2024-11-20T14:22:16+01:00
1d262c3e-268f-4753-9ec3-1110b7c27666;Baumwipfelpfad;Auf dem Baumwipfelpfad bei der Mittelstation Holenstein sind atemberaubende Ausblicke garantiert.;Mit einer Rutschbahn und vier Plattformen ist der Baumwipfelpfad ein einzigartiges Naturerlebnis für die ganze Familie. Für die Kleinen gibt es viel zu entdecken, für Abwechslung und Spass ist gesorgt, während die Erwachsenen gemütlich entspannen, Bergluft und die Aussicht auf Eiger, Mönch und Jungfrau geniessen können.;7.9786062240600595;46.61999587520433;Mittelstation Holenstein;3818;Grindelwald;+41 33 828 71 12;mail@maennlichen.ch;https://maennlichen.ch;[{'@type': 'ImageObject', 'contentUrl': 'https://jrtagpimtsoch.sos-ch-dk-2.exoscale-cdn.com/catalog/2/b/e/5/2be555996263aa7afd4d198516463f904acbf0e5_Baumwipfelpfad_Maennlichen_Sommer__3_.jpg'}];2024-12-09T15:49:57+01:00
1d447e53-dd94-40d8-ad66-6b1ecf22ae5a;Digitaler Foto-Hotspots Trail Lauterbrunnen;Nutze deine Zeit zum Fotografieren – verschwende sie nicht mit der Suche nach den Fotoplätzen.;Wir haben dir einen Foto-Hotspots Trail zusammengestellt, auf welchem du an einigen der schönsten Fotoplätzen im Lauterbrunnental vorbeikommst. Wir empfehlen dir, die Hotspots der Reihe nach zu besuchen. Es ist aber auch möglich, die Posten in unterschiedlicher Reihenfolge abzulaufen.

Damit der Sonnenstand bei den Fotos gut ist, empfehlen wir mit dem Trail am Morgen zu starten.

Wir wünschen dir viel Vergnügen.;7.90743112564087;46.59699896428875;Stutzli 460;3822;Lauterbrunnen;+41 33 856 85 68;info@lauterbrunnen.swiss;https://lauterbrunnen.swiss;[{'@type': 'ImageObject', 'contentUrl': 'https://jrtagpimtsoch.sos-ch-dk-2.exoscale-cdn.com/catalog/6/6/c/7/66c7ee3506f8fe54b90b7f3b8284c85caebecb61_Digitaler_Fotospottrail_Lauterprunnen.jpg'}];2025-01-24T09:17:45+01:00
1f4aec85-dbe3-4d24-a6ba-f09f9301dcba;Grillstelle Oberer Lauchbühl;<div>Die gemütliche Grillstelle mit Unterstand (1813 m ü. M.) befindet sich direkt am Wanderweg Grosse Scheidegg – Grindelwald. Das Tal von Grindelwald liegt ausgebreitet vor uns in der Abendsonne.</div><div><br></div><div>Zugang: Postautohaltestelle Oberer Lauchbühl, 5 Min. zu Fuss Richtung Grindelwald</div>;8.092873692512514;46.6483093166344;3818;Grindelwald;0338541212;info@grindelwald.swiss;[{'@type': 'ImageObject', 'contentUrl': 'https://jrtagpimtsoch.sos-ch-dk-2.exoscale-cdn.com/catalog/c/4/a/4/c4a450ccdcc0e5462181c953f49a3475de8522a3_2209_0562_by.davidbirri.jpg'}];2024-11-20T14:22:16+01:00
2192039d-3afb-42d9-9ea4-a794984cfe8e;First Mountain Cart;Donnere mit dem First Mountain Cart drei Kilometer über Stock und Stein.;Das neue Funsportgerät mit einem bequemen Sitz, guten Reifen und standfesten Bremsen bringt dich sicher auf der Naturstrasse von Schreckfeld nach Bort.  

Der Mountain Cart, eine Mischung aus Gokart und Rodel, eignet sich für Kinder mit einer Mindestgrösse von 135 cm. Schutzhelme stehen kostenlos zur Verfügung.;8.06512573532944;46.6583706;Station Schreckfeld;3818;Grindelwald;+41 33 828 72 33;info@jungfrau.ch;https://jungfrau.ch;[{'@type': 'ImageObject', 'contentUrl': 'https://jrtagpimtsoch.sos-ch-dk-2.exoscale-cdn.com/catalog/b/e/7/4/be74f058859d1ac592900e64e0cad5d2fb03a964_grindelwald_first_sommer_mountain_cart_firstbahn.jpg'}];2024-12-09T15:49:59+01:00
258e6753-c798-4789-b9c8-23ce10a28a7e;Canyoning Grimsel;Nervenkitzel total;Bereits die 50-Meter-Abseilstelle zu Beginn der Tour lässt deinen Puls in die Höhe schnellen. Weiter erlebst du aufregende Sprünge, rutschst den Fels hinunter oder springst direkt von einer Tyrolienne in das kristallklare Wasserbecken. Mit ihrer einmaligen Landschaft und den spektakulären Felsformationen überzeugt die Schlucht auch optisch. Die Tour eignet sich für aktive Personen, die ein Abenteuer in der Natur suchen.;8.3342965;46.572313;Grimsel;+41 33 224 07 07;info@outdoor.ch;https://outdoor.ch;[{'@type': 'ImageObject', 'contentUrl': 'https://jrtagpimtsoch.sos-ch-dk-2.exoscale-cdn.com/catalog/c/5/f/8/c5f873fb20fef502fb597273c7d25a744cb67396_canyoning_grimsel__2_.jpg'}];2024-12-09T15:50:00+01:00
25b5913d-45ff-49b6-91c7-120cc9cf1b8f;Birdwing Flugschule Haslital;Das Haslital von oben bestaunen;Ein Passagierflug dauert zwischen 20 und 60 Minuten. Gutes Schuhwerk und eine warme Jacke sind Voraussetzung, dann kann es aber auch schon losgehen. Für den Tandemflug stehen dir gut ausgebildete und erfahrene Piloten zur Verfügung.

Das Fluggebiet reicht vom Brienzer Rothorn über die Axalp, Planplatte über den Titlis bis in die Grimsel- und Sustenregion.;8.174906864422448;46.73319655;Brünigstrasse 52;3860;Meiringen;+41 79 353 23 23;info@birdwing.ch;https://www.birdwing.ch/;[{'@type': 'ImageObject', 'contentUrl': 'https://jrtagpimtsoch.sos-ch-dk-2.exoscale-cdn.com/catalog/a/7/8/0/a7801799717d2791a49f6e658e72ed63bf9c5a58_gleitschirme_davidbirri.jpg'}];2024-12-09T15:50:00+01:00
2784c537-d90b-4e8f-92bd-47a85c857241;Bergbuslinie Waldspitz Nr. 127;Waldspitz – Ausflugsziel und Wanderparadies;<p style="box-sizing: inherit; --tw-shadow: 0 0 #0000; --tw-ring-inset: var(--tw-empty,); --tw-ring-offset-width: 0px; --tw-ring-offset-color: #fff; --tw-ring-color: rgba(59,130,246,.5); --tw-ring-offset-shadow: 0 0 #0000; --tw-ring-shadow: 0 0 #0000; margin-right: 0px; margin-bottom: 1rem; margin-left: 0px; padding-top: 0px;"><a href="https://www.google.ch/maps/place/Grindelwald,+Bahnhof/@46.6243063,8.0313945,17z/data=!4m10!1m2!2m1!1sBahnhof,+Grindelwald!3m6!1s0x478f9955b93aadd1:0x1355773f0aa9bd42!8m2!3d46.624237!4d8.034457!15sChRCYWhuaG9mLCBHcmluZGVsd2FsZJIBC2J1c19zdGF0aW9u4AEA!16s%2Fg%2F1tc_7l0h?hl=de&amp;entry=ttu&amp;g_ep=EgoyMDI1MDEyMC4wIKXMDSoASAFQAw%3D%3D" target="_blank" style="text-align: justify; font-weight: bold;">Zum Ziel navigieren (Google Maps)</a></p><p style="box-sizing: inherit; --tw-shadow: 0 0 #0000; --tw-ring-inset: var(--tw-empty,); --tw-ring-offset-width: 0px; --tw-ring-offset-color: #fff; --tw-ring-color: rgba(59,130,246,.5); --tw-ring-offset-shadow: 0 0 #0000; --tw-ring-shadow: 0 0 #0000; margin-right: 0px; margin-bottom: 1rem; margin-left: 0px; padding-top: 0px;"><br>Weiss schimmernde Berggipfel, üppige Alpweiden und weidende Kühe – das alles und noch viel mehr findest du beim Waldspitz. Mit dem Duft unendlich vieler, würziger Blumen in der Nase erlebst du echte unverfälschte Bergwelt im Berner Oberland. Erlebe die exklusive Bergfahrt, im Sommer, durch wildromantische Gebirgslandschaften zum idyllisch gelegenen Waldspitz, ein idealer Ausgangspunkt für diverse Wanderungen.</p>;8.03455173969269;46.6241833019725;3818;Grindelwald;+41 33 854 16 16;info@grindelwaldbus.ch;https://www.grindelwaldbus.ch/;[{'@type': 'ImageObject', 'contentUrl': 'https://jrtagpimtsoch.sos-ch-dk-2.exoscale-cdn.com/catalog/2/7/8/8/27880336640aa9ebc492ab811a6b5d497196b573_GrindelwaldBus_127.png'}];2025-05-27T08:25:50+02:00
28b7c5a2-d9c4-4ec5-a0a8-395a87eca0e9;Airtime Paragliding Lauterbrunnen;Du willst dich frei wie ein Vogel fühlen? Dann buche jetzt einen Tandemflug.;Bereits am Startplatz kannst du das wunderbare Panorama geniessen. Das ist aber nichts im Vergleich zu dem, was dich danach erwartet. Nach dem Start fühlst du, wie der grosse Schirm dich und deinen Piloten sanft in die Höhe zieht. Spätestens dann, wenn deine Beine nur noch in der Luft zappeln, sollte dein Puls höher schlagen. Ein überwältigendes Gefühl der Freiheit macht sich breit. Vielleicht gemischt mit etwas Anspannung. Das ist aber ganz normal.

Dein Pilot ist ein in der Schweiz zertifizierter Tandemflieger und kennt seinen Schirm, die Winde und das Tal in- und auswendig. Du darfst ihm zweifellos vertrauen und mit ihm die atemberaubende Bergwelt aus der Luft erleben.
Übrigens: Du brauchst keine Vorkenntnisse für einen Tandemflug und auch Kinder dürfen mitfliegen.

In Mürren kannst du ganzjährig fliegen. Dank der günstigen Geografie sind Tandemflüge bei fast jeder Wetterlage möglich - ausser bei Regen.

Airtime Paragliding hat verschiedene fixe Zeiten, zu welchen du deinen Flug buchen kannst. Für das ganze Erlebnis musst du, je nach Flug, ein bis zwei Stunden Zeit einrechnen. Davon sind 15 bis 40 Minuten reine Flugzeit.

Du hast die Möglichkeit mit Airtime Paragliding von Lauterbrunnen nach Stechelberg zu fahren – und danach mit der  Gondel weiter nach Mürren. Du kannst die Piloten aber auch direkt in Stechelberg oder Mürren treffen. Ab Mürren gehst du zusammen mit deinem Piloten zum Startplatz. Dieser variiert je Saison und gebuchtem Flug.;7.907361388206483;46.59508152310831;Fuhren;3822;Lauterbrunnen;+41 79 247 84 63;info@airtime-paragliding.ch;https://airtime-paragliding.com;[{'@type': 'ImageObject', 'contentUrl': 'https://jrtagpimtsoch.sos-ch-dk-2.exoscale-cdn.com/catalog/9/7/7/6/977660793164136c1607f0d8adfdccd827452e49_Schilthorn_PizGloria_Paragl.jpg'}];2025-07-15T07:55:36+02:00
2a6493c1-7772-4a83-9e9a-c483676d3428;Grillstelle Baumwipfelpfad;<p>Auf den neuen Baumwipfelpfad bei der Mittelstation Holenstein sind atemberaubende Ausblicke garantiert. Mit einer Rutschbahn und vier Plattformen ist der Baumwipfelpfad ein einzigartiges Naturerlebnis für die ganze Familie. Während die Erwachsenen gemütlich entspannen oder das Feuer in Gang bringen, gibt es für die Kleinen viel zu entdecken.</p><p>Zugang: Mit der Männlichenbahn bis Holenstein, 10 Minuten zu Fuss auf dem Wanderweg Richtung Brandegg.</p>;7.979775667190553;46.62052851555962;3818;Grindelwald;0338541212;info@grindelwald.swiss;[{'@type': 'ImageObject', 'contentUrl': 'https://jrtagpimtsoch.sos-ch-dk-2.exoscale-cdn.com/catalog/3/c/7/9/3c79d067dd0354e1cd1caed6c1c074ad41a86ab5_2209_0562_by.davidbirri.jpg'}];2024-11-20T14:22:16+01:00
2dc67134-3331-45fc-b84c-8d0d0b387b01;Trottibike Grindelwald;Rasant den Berg hinunter – der Spass für die ganze Familie;Die Firstbahn bringt dich bequem zum Startpunkt bei der Mittelstation Bort. Mit einem Helm geschützt fährst du dann über wenig befahrene, asphaltierte Strassen nach Grindelwald hinunter. Für Kinder stehen Mini-Trottibikes zur Verfügung.

Helmtragpflicht (wird kostenlos zur Verfügung gestellt)
Nötige Mindestgrösse: 125 cm;8.051770203412033;46.64672445;Niederbach Bort;3818;Grindelwald;+41 33 828 72 33;info@jungfrau.ch;https://jungfrau.ch;[{'@type': 'ImageObject', 'contentUrl': 'https://jrtagpimtsoch.sos-ch-dk-2.exoscale-cdn.com/catalog/6/3/4/d/634d3cb52fc6b88b7f48cdb9196c6a2822c5e109_grindelwald_first_sommer_trottibike_01.jpg'}];2024-12-09T15:50:00+01:00
2f5345be-8b03-4ba3-89d4-f66a8f00cec2;Royal Walk Männlichen;Wie es sich wohl anfühlt, eine Königin oder ein König zu sein? Hier findest du es heraus.;Bevor Königinnen und Könige ihren Triumph feiern können, müssen sie sich auf einen lehrreichen Pfad begeben. So ist das auch auf dem Männlichen. Wobei... hier ist eigentlich schon der Weg zum Gipfel triumphal. Die Aussicht auf das Dreigestirn Eiger, Mönch und Jungfrau ist unbeschreiblich. Der Royal Walk führt dich von der Bergstation des Männlichen auf den Gipfel des Männlichen. Was an der Königspforte beginnt, endet im Gipfelreich. Dazwischen liegen 120 spannende Höhenmeter, gespickt mit viel Wissenswertem für Jung und Alt. Übrigens: Du kannst nicht nur königlich wandern, sondern auch königlich auf den Männlichen gondeln? Auf dem Freiluftbalkon der Luftseilbahn Wengen-Männlichen. Worauf wartest du noch?;7.938526456217466;46.617938253497115;3823;Wengen;+41 33 855 29 33;info@maennlichen.ch;https://maennlichen.ch;[{'@type': 'ImageObject', 'contentUrl': 'https://jrtagpimtsoch.sos-ch-dk-2.exoscale-cdn.com/catalog/b/b/b/6/bbb6599c7b7c9967d515e0e973da6cbdacf8842f_Royal_Walk__71_.jpg'}];2025-03-31T15:34:16+02:00
334ba59a-c344-4654-a2ba-7c2657908a94;Ortsbus Grindelwald Linie 122;Gletscherschlucht – Bahnhof – Bodmi (– Klusi)
Bodmi (– Klusi) – Bahnhof – Gletscherschlucht;<p><a href="https://www.google.com/maps/place/Grindelwald,+Gletscherschlucht/@46.6132658,8.0462224,21z/data=!4m6!3m5!1s0x478f9c0f6e0157f7:0x3808637c6c61e272!8m2!3d46.613309!4d8.046111!16s%2Fg%2F1tdl0gsp?entry=ttu&amp;g_ep=EgoyMDI1MDIwOS4wIKXMDSoASAFQAw%3D%3D" style="font-weight: bold;">Zum Ziel navigieren (Google Maps)</a><br></p><p><br></p><p>Die Ortslinie 122 in Grindelwald bringt dich von der beeindruckenden Gletscherschlucht über den Bahnhof bis hinauf nach Bodmi. Im Winter endet die Fahrt hier, während du im Sommer bis zur malerischen Klusi weiterfahren kannst. Diese Route ist ideal, um die atemberaubende Landschaft und die charmanten Ecken von Grindelwald zu entdecken. Egal ob du zur Pfingsteggbahn oder zum Sportzentrum möchtest, die Linie 122 ist dein zuverlässiger Begleiter. Die Busse verkehren von Mitte Dezember bis Mitte Mai, also plane deine Reise entsprechend!</p>;8.034311051007627;46.62408151970282;3818;Grindelwald;+41 33 854 16 16;info@grindelwaldbus.ch;https://www.grindelwaldbus.ch/;[{'@type': 'ImageObject', 'contentUrl': 'https://jrtagpimtsoch.sos-ch-dk-2.exoscale-cdn.com/catalog/7/b/f/3/7bf3740824c030c95ab9ee239db6fb395731f5f1_GrindelwaldBus_queer1.png'}];2025-05-27T09:04:55+02:00
33fe1179-bf07-4654-8405-282d9f670986;Swiss-O-Finder Grindelwald;Bewegen und orientieren – für alle und zu jeder Zeit;Mit dem Swiss-O-Finder Grindelwald erlebst du das Gletscherdorf auf eine neue Art und Weise. Du kannst den Orientierungslauf spazierend oder natürlich auch laufend absolvieren – so wie du möchtest. In Grindelwald Dorf stehen zwei Wander-/Laufvarianten zur Auswahl. Start und Ziel befinden sich beim Sportzentrum.

Die Strecken führen oberhalb des Dorfes entlang der schönsten Sehenswürdigkeiten von Grindelwald.;8.035522339040838;46.62300125;Dorfstrasse 110;3818;Grindelwald;+41 62 287 30 40;grindelwald@swiss-o-finder.ch;https://swiss-o-finder.ch;[{'@type': 'ImageObject', 'contentUrl': 'https://jrtagpimtsoch.sos-ch-dk-2.exoscale-cdn.com/catalog/c/f/e/7/cfe79a57fb99d2c1b93018d0320c41ea8f512b98_swiss_o_finder_grindelwald__1_.jpg'}];2024-12-09T15:50:03+01:00
36669593-d0e5-4ef4-9564-ef5530360cdb;Monster-Trotti Sulwald – Isenfluh;Adrenalin und Aussicht: Mit dem Monster-Trotti von Sulwald nach Isenfluh;<p>Ein besonderes Abenteuer erwartet dich auf der rasanten Fahrt mit dem Monster-Trotti von Sulwald hinunter nach Isenfluh – ein Highlight, das die Bergbahn anbietet. Die Trottis können bequem bei der Talstation gemietet werden. Nach der aussichtsreichen Bergfahrt startet die Abfahrt auf einem gut ausgebauten Forstweg, der in rund 20 Minuten durch den schattigen Wald zurück ins Dorf führt. Ein Zwischenstopp beim beeindruckenden Sulsbach-Wasserfall lohnt sich – das Naturspektakel bietet eine perfekte Gelegenheit zum Verschnaufen und Staunen.</p><p></p><p>Strecke: Sulwald – Isenfluh</p><p>Schwierigkeitsgrad: Leicht</p><p>Distanz: 4 km</p><p>Höhendifferenz: 400 m</p>;7.895145525219878;46.62039383989956;3822;Isenfluh;+41 33 855 22 49;info@isenfluh.ch;https://isenfluh.ch;[{'@type': 'ImageObject', 'contentUrl': 'https://jrtagpimtsoch.sos-ch-dk-2.exoscale-cdn.com/catalog/7/4/e/4/74e418da85727165ace314ab6ad583d875c584f1__JRT3544_2.jpg'}];2025-07-18T16:16:46+02:00
376db146-61c8-42b6-adde-76097c9a28bc;Rundflüge mit Swiss Helicopter;Erlebe Eiger, Mönch und Jungfrau aus der Vogelperspektive.;Die Erlebnisflüge der Swiss Helicopter AG lassen dich unvergessliche Momente erleben. Geniesse einen Flug über das weltberühmte Dreigestirn Eiger, Mönch und Jungfrau, bestaune die Gletscherwelt aus der Luft. Wir kennen die attraktivsten Plätze und können es kaum erwarten, sie dir zu zeigen.;8.201751385670306;46.710914200000005;Geissholz 198a;3860;Schattenhalb;+41 33 828 90 00;berneroberland@swisshelicopter.ch;https://www.swisshelicopter.ch;[{'@type': 'ImageObject', 'contentUrl': 'https://jrtagpimtsoch.sos-ch-dk-2.exoscale-cdn.com/catalog/c/4/f/e/c4feba0101f921c522994b9a380e0a64189d4a2d_swiss_helicopter__2_.jpg'}];2024-12-09T15:50:03+01:00
39d030b7-3955-43e9-b6e2-84f659532464;First Flieger;Top of Adventure – Hier holst du dir einen Adrenalinkick;<p>Abenteuerlustige sausen mit einer Geschwindigkeit von bis zu 84 km/h an einem 800 Meter langen Stahlseil von First zur Mittelstation Schreckfeld hinunter und sind dabei in einer entsprechenden Sitzvorrichtung gut gesichert. Die Fahrt wird schliesslich durch eine Federkonstruktion gestoppt. Bis zu vier Personen können auf dieser gigantischen Tyrolienne gemeinsam starten.</p>;8.0551372;46.6592539;3818;Grindelwald;+41 33 828 77 11;info@jungfrau.ch;https://jungfrau.ch;[{'@type': 'ImageObject', 'contentUrl': 'https://jrtagpimtsoch.sos-ch-dk-2.exoscale-cdn.com/catalog/f/5/0/1/f50104542f8330e196e6a7bc5d8783577a1990b1_first_flieger_winter.jpg'}];2024-12-09T15:50:03+01:00
3a195a5b-195d-42e7-a255-36f8be885802;Tal- und Sagenmuseum Lauterbrunnen;Ein Blick zurück in die Vergangenheit;Den Alten zur Ehr – den Jungen zur Lehr: Im Tal- und Sagenmuseum siehst du, wie ein Hotelzimmer um 1900 aussah, mit welchen Skis die ersten Lauberhornrennen gefahren wurden oder wie das Leben der Bergbauern im Lauterbrunnental war.

2019 wurde das Talmuseum zum Tal- und Sagenmuseum. Die mächtige Natur der Talschaft Lauterbrunnen hat ihre Bewohner*innen stets stark beeindruckt. Alemannische Siedler mit ihrer nordisch geprägten Mythologie und Einwanderer*innen aus dem Lötschental, mit ihrer Walserkultur, haben dazu beigetragen, dass ein vielschichtiger Volksglaube in unserem Tal entstehen konnte.

Auf Anfrage können jederzeit Besuche und spezifische Veranstaltungen   gebucht werden.;7.9090959;46.5933676;In der Ey 184;3822;Lauterbrunnen;+41 33 855 35 86;info@talmuseum-sagenwelt-lauterbrunnen.ch;https://www.talmuseum-sagenwelt-lauterbrunnen.ch/;[{'@type': 'ImageObject', 'contentUrl': 'https://jrtagpimtsoch.sos-ch-dk-2.exoscale-cdn.com/catalog/4/9/9/3/4993c13d182f1e494b7cf45e0d71147305c4459e_csm_Museeum_Hotelzimmer_28d20f9d6e.jpg'}];2024-12-09T15:50:03+01:00
4161e2c7-fe90-4fd5-86d1-9252ac4c8384;Grillstelle Coca-Cola Hüttli;<div>Auf einem halbstündigen Spaziergang erreichen Sie das versteckte Hüttli oberhalb der Gletscherschlucht inmitten von eindrücklichen Felsplatten.</div><div><br></div><div>Zugang: Parkplatz Gletscherschlucht, 30-40 min. zu Fuss auf dem Wanderweg Richtung Boneren / Alpiglen bis zu den ersten Felsplatten (1226 m ü. M.). Links versteckt befindet sich das Hüttli, Tisch, Bänke, gemauerte Feuerstelle mit Rost sowie Holz ist vorhanden.</div>;8.048890829086305;46.61038065883361;3818;Grindelwald;0338541212;info@grindelwald.swiss;[{'@type': 'ImageObject', 'contentUrl': 'https://jrtagpimtsoch.sos-ch-dk-2.exoscale-cdn.com/catalog/c/b/3/6/cb363210cfd38a54cff21532e6c1e842bdd5ab03_2209_0562_by.davidbirri.jpg'}];2024-11-20T14:22:16+01:00
4479d8d5-5549-4d34-a5df-3a5d37e4ad5a;Bogensport;Volltreffer im Bogensport;Kennen Sie die Geschichten von Robin Hood und Winnetou oder Katniss Everdeen, die junge Heldin der Tribute von Panem? Alles Meister im Umgang mit Pfeil und Bogen! Dazu gehören Konzentration, Körperbewusstsein und Intuition - wir bietet Ihnen die Möglichkeit, mit einem erfahrenen Guide die ersten Schritte in diese faszinierende Sportart zu wagen. Nachdem Sie während einer Stunde Ihre Treffsicherheit geübt haben, können Sie in der zweiten Stunde Ihr Können auf dem abwechslungsreichen 3D-Parcours beweisen. 

Verbinden Sie eine unsere Aktivitäten mit einer Übernachtung in unserem Tipidorf und geniessen Sie ein Naturerlebnis, dass Sie nie vergessen werden! 

Sie haben einen speziellen Wunsch? Wir finden bestimmt die perfekte Lösung.;8.15022;46.7467;Lenggasse 4;3860;Meiringen;+41 76 572 54 72;info@hasli-aktiv.ch;https://hasli-aktiv.ch/de/home/welcome;[{'@type': 'ImageObject', 'contentUrl': 'https://jrtagpimtsoch.sos-ch-dk-2.exoscale-cdn.com/catalog/0/d/7/a/0d7abb1b0df7efd2539b05a31b23169f847c342c_Bogenschiessen_11_7481.jpg'}];2025-06-10T15:31:03+02:00
45b9eed4-bc2c-4e5d-90a7-a41c0f62b8d1;Ortsbus Grindelwald Linie 123;Grindelwald (Kirche) - Firstbahn - Grindelwalderhof - Sportzentrum - Grindelwald (Bahnhof) - Endweg - Glacier - Nirggen - Zollohaus - Hellbach - Säge Grund - Terminal - Grund (Bahnhof) - Landi - Sand - Engelshaus - Spillmättli - Vor dem Holz - Unter Eiger Bärgman - Unter Eiger - Aspen - Järgerstübli;<p><a href="https://www.google.com/maps/place/Grindelwald,+Kirche/@46.625147,8.0435261,17z/data=!3m1!4b1!4m6!3m5!1s0x478f9bfa2f494743:0xc1cf86c7a36cb0c2!8m2!3d46.625147!4d8.046101!16s%2Fg%2F1tmkjwsv?entry=ttu&amp;g_ep=EgoyMDI1MDIxMC4wIKXMDSoASAFQAw%3D%3D" style="font-weight: bold;">Zum Ziel navigieren (Google Maps)</a><br></p><p><br></p><p>Die Ortslinie 123 in Grindelwald verbindet die Kirche mit dem Bahnhof und Itramen Egg. Diese Strecke führt durch malerische Orte wie die Firstbahn, das Sportzentrum und den Glacier. Du kannst von der Kirche bis zum Jägerstübli reisen und dabei die atemberaubende Landschaft geniessen. Die Linie ist vom Mitte Dezember bis zum Mitte Mai in Betrieb. Perfekt für alle, die Grindelwalds Schönheit bequem erkunden möchten.</p>;8.034343471988926;46.62406123237372;3818;Grindelwald;+41 33 854 16 16;info@grindelwaldbus.ch;https://www.grindelwaldbus.ch/;[{'@type': 'ImageObject', 'contentUrl': 'https://jrtagpimtsoch.sos-ch-dk-2.exoscale-cdn.com/catalog/9/2/a/8/92a80d543a0ee5df3687775eb81282c7aca1eda9_GrindelwaldBus_queer1.png'}];2025-05-27T09:11:12+02:00
4e5bac75-ce83-4268-8140-440a27e236a3;Öffentliche Toilette Terminal;Öffentlich zugängliche Toilette im Terminal.;<p class="ql-align-justify"><strong><a href="https://www.google.ch/maps/place/Grindelwald+Terminal/@46.6247437,8.0188888,269m/data=!3m1!1e3!4m14!1m7!3m6!1s0x478f9b998ec92c7f:0xc89d3c8f60291e03!2sLuftseilbahn+Grindelwald+Pfingstegg!8m2!3d46.6232108!4d8.046915!16s%2Fg%2F1222c9qw!3m5!1s0x478f9904c3f2756d:0x30518c75ce48f1d2!8m2!3d46.6247131!4d8.0188985!16s%2Fg%2F11j38n2kxz?hl=de&amp;entry=ttu&amp;g_ep=EgoyMDI1MDQwOS4wIKXMDSoASAFQAw%3D%3D" rel="noopener noreferrer" target="_blank">Zum Ziel navigieren (Google Maps)</a></strong></p><p></p><p>Die Toilettenanlage befindet sich in der Haupthalle des Terminals, gegenüber von der Coop-Filiale.</p>;8.018474578857424;46.625152240968866;3818;Grindelwald;+41 33 828 72 33;info@jungfrau.ch;https://www.jungfrau.ch/de-ch/;[{'@type': 'ImageObject', 'contentUrl': 'https://jrtagpimtsoch.sos-ch-dk-2.exoscale-cdn.com/catalog/c/2/5/d/c25d7c5403619bdc1aea2b68003172eb560d6dc4_Grindelwald_Terminal_Innen_Ansicht_Top_of_Europe_Shop.jpg'}];2025-04-15T14:56:57+02:00
4ecec476-afb6-4bac-b736-d76d647fe8ef;Skydive Interlaken;Helikopter-Fallschirmsprünge über den Schweizer Alpen;Aus 4000 m ü. M. aus dem Helikopter springen – Adrenalin pur: Helikopter-Fallschirmsprünge über den Alpen sind die Spezialität von Skydive Interlaken. 

Nach atemberaubendem Flug über Alpwiesen und Gipfel öffnet sich weit über den Wolken die Türe des Helikopters. Daumen hoch und schon geht es kopfüber mit 200 km/h der Erde entgegen. Das Panorama Eiger, Mönch und Jungfrau wirst du dein Leben lang nicht mehr vergessen.

Täglich wird über Interlaken, Lauterbrunnen und direkt vor der Eiger Nordwand gesprungen. Nach dem unvergesslichen Skydiving erhältst du ein Erinnerungsfoto resp. einen Erinnerungsfilm.;7.8630996001206235;46.681590099999994;Mittelweg 11;3812;Wilderswil;+41 33 222 58 48;info@skydiveinterlaken.com;https://www.skydiveinterlaken.ch/de/;[{'@type': 'ImageObject', 'contentUrl': 'https://jrtagpimtsoch.sos-ch-dk-2.exoscale-cdn.com/catalog/5/8/0/a/580a15375fcfc5fd4b60c181fc318afd6be24aef_skydive_interlaken__1_.jpg'}];2025-04-17T14:57:04+02:00
4f504062-c3ce-468f-b04b-35adaf707903;Pumptrack Hasliberg;Das ideale Trainings- und Freizeitgelände für alle, die gerne auf Rädern unterwegs sind.;Egal ob mit BMX, Skateboard, Inlineskates, Mountainbike oder Scooter – auf sämtlichen nicht motorisierten Fahrzeugen findest du hier unzähliche Varianten und immer wieder neue Herausforderungen. Ausser einem fahrbaren Untersatz benötigst du lediglich die passende Schutzausrüstung um loszulegen. 

Aus Richtung Bern-Interlaken oder Luzern via Brünig-Pass nach Hasliberg Wasserwendi.
Parkplätze/Parkhaus bei der Seilbahnstation Hasliberg Twing, Fussmarsch zum Pumptrack ca. 15 Min. oder in wenigen Minuten mit dem Bike. Achtung: Direkt beim Pumptrack gibt es keine Parkmöglichkeiten.;8.194524256213676;46.741405900000004;Urseni 331c;6085;Hasliberg Goldern;+41 33 972 11 50;hauswartung@hasliberg.ch;https://www.hasliberg.ch/immobilien-raumreservationen/pumptrack-hasliberg/;[{'@type': 'ImageObject', 'contentUrl': 'https://jrtagpimtsoch.sos-ch-dk-2.exoscale-cdn.com/catalog/0/9/8/f/098ff3ce0c25cbf737538d9c13e2d9902bb01146_pumptrack_hasliberg__2_.jpg'}];2024-12-09T15:50:09+01:00
56521597-5ae6-47cd-841b-de9f7085f1ae;Indoor Spielplatz Grindelwald;Indoor Spielplatz im Sportzentrum Grindelwald.;<p>Der Indoor Spielplatz im Sportzentrum Grindelwald bietet einen Kletterturm, eine Rutschbahn und ein Ballpool, die für viele Spass bei jedem Wetter sorgen. Der Spielplatz kann nur im Socken betreten werden, und die Aufsichtspflicht liegt bei der erwachsenen Begleitpersonen. Essen und Getränke sind ausserhalb des Spielplatzes zu konsumieren. Die Öffnungszeiten sind von Mai bis Oktober, Montag bis Samstag von 10.00 bis 20.00 Uhr und Sonntag von 10.00 bis 18.00 Uhr. Kinder bis 4 Jahre zahlen CHF 6.-, Kinder von 4 bis 15 Jahren CHF 10.-, während Begleitpersonen frei Eintritt haben. </p>;8.035675971436868;46.62316951319816;[{'@type': 'ImageObject', 'contentUrl': 'https://jrtagpimtsoch.sos-ch-dk-2.exoscale-cdn.com/catalog/1/6/9/f/169f4ab0d3a8e648820414208908c9ad6500a92a__W0A5347_by.davidbirri.jpg'}];2025-05-01T14:28:32+02:00
569bd835-f4a4-4efb-9836-2b793385791d;Indoor Seilpark Grindelwald;Den grössten Indoor Seilpark Europas findest du im Sportzentrum.;Vom einfachen «Eiger Westgrat» bis zur schwierigen «Eiger Nordwand» sorgen im ersten Indoor Seilpark der Schweiz fünf Routen für Abenteuer in luftiger Höhe. Unter dem Dach der Eishalle balancierst, kletterst oder fliegst du über teils wackelige, teils originelle Elemente. Nach kompetenter Einführung durch das Personal wird der Seilpark individuell begangen.

Holzpodeste, Drahtseile, geknüpfte Netze und grindelwald-typische Materialien wurden vom Bauteam in Handarbeit und mit viel Phantasie in die selbst entworfenen und neuartigen Seilpark-Elemente eingebaut.

Erleben den Eiger und die Materialen, welche es für dessen Besteigung braucht, für einmal Indoor – und besteige  den Gipfel über die folgenden Parcours:

Westgrat: einfach
Mittellegigrat: mittel
Weisse Spinne: mittelschwer
Nordwand: sehr schwer
Rundflug: mittel / mittelschwer (je nachdem wie die Elemente begangen werden);8.035522339040838;46.62300125;Dorfstrasse 110;3818;Grindelwald;+41 33 224 07 01;info@outdoor.ch;https://outdoor.ch;[{'@type': 'ImageObject', 'contentUrl': 'https://jrtagpimtsoch.sos-ch-dk-2.exoscale-cdn.com/catalog/3/7/f/b/37fbc0a8be59980a8fbca8dced94e7b45122eef4_Indoor_Seilpark_Grindelwald__2_.jpg'}];2025-04-09T08:16:24+02:00
5a86359f-e12c-4e12-ac36-cc7b0b5e1612;Fly-Line Pfingstegg;Sitzend durch die Baumwipfel gleiten;Die Fly-Line ist ein Edelstahlrohrsystem aufgehängt an Holzmanschetten an Bäumen im Wald, an welchem du in einem Gurtsystem sitzend an Rollen mit 8 bis 12 km/h durch den einzigartigen Lebensraum schwebst. Ziel ist es, die Umgebung zu geniessen, abzutauchen in die Welt des Waldes und entschleunigt wieder am Start anzukommen.

Die Fly-Line Pfingstegg startet direkt unterhalb der Bergstation der Luftseilbahn Grindelwald – Pfingstegg und verschwindet sogleich im Wald. Der Parcours schlängelt sich auf ca. 350 m durch die Bäume und endet kurz unterhalb der bestehenden Seilbahnstütze auf der Lichtung. Von dort aus wirst du mit einem speziell für dieses Projekt entwickelten Lifts wieder zum Ausgangspunkt gebracht (weltweit die einzige Installation mit einem Rückbringer).;8.0470013;46.6231216;Rybigässli 25;3818;Grindelwald;+41 33 853 26 26;info@pfingstegg.ch;https://pfingstegg.ch;[{'@type': 'ImageObject', 'contentUrl': 'https://jrtagpimtsoch.sos-ch-dk-2.exoscale-cdn.com/catalog/a/4/6/7/a4672fec04680d001c1be63c99d8ad9546f7347b_2305_0973_3049_by.davidbirri.jpg'}];2025-08-26T07:44:22+02:00
5ec058f3-3106-4164-8ea8-bae4df040f74;River Rafting Lütschine;Bereit für ein wildes Abenteuer?;Die qualifizierten Guides führen dich sicher durch die schäumenden Wasserfluten und sorgen für Unterhaltung. Die Lütschine ist ein reissender, anspruchsvoller Wildbach, aber für jede und jeden machbar. Eingebootet für eine der besten Raftingstrecken der Schweiz wird in Lütschental. Ausgebootet in Bönigen am Brienzersee.;7.8630996001206235;46.681590099999994;Hauptstrasse 15;3800;Interlaken;+41 33 224 07 07;info@outdoor.ch;https://outdoor.ch/de/;[{'@type': 'ImageObject', 'contentUrl': 'https://jrtagpimtsoch.sos-ch-dk-2.exoscale-cdn.com/catalog/8/4/e/7/84e72dfe1fd27d477b7359ddee427c30cc9337d3_river_rafting_luetschine__5_.jpg'}];2025-09-05T11:21:26+02:00
634cd4a6-d9ce-4ff6-968e-c4e7abe66aae;Rodelbahn Pfingstegg;Ein adrenalinreiches Erlebnis für Jung und Alt;Die Luftseilbahn – Pfingstegg führt von der Talstation (1028 m ü.M.) auf die Privatalp Pfingstegg (1391 m ü.M.). Hier befindet sich die Sommer-Rodelbahn Pfingstegg, auf welcher sich die Aussicht besonders geniessen lässt.

Auf einer Länge von 736 m und einer Höhendifferenz von 58 m kannst du eine maximale Geschwindigkeit von 40 km/h erreichen. Ein Spass für die ganze Familie.;8.0470013;46.6231216;Rybigässli 25;3818;Grindelwald;+41 33 853 26 26;info@pfingstegg.ch;https://pfingstegg.ch;[{'@type': 'ImageObject', 'contentUrl': 'https://jrtagpimtsoch.sos-ch-dk-2.exoscale-cdn.com/catalog/3/6/b/b/36bb2a77067b071e2da5c7de691a8b80c750c625_2305_0253_3037_by.davidbirri.jpg'}];2025-08-26T07:47:10+02:00
6364c365-90ca-45ef-9b57-9edac4ae74ba;Sanitäre Anlagen Sportzentrum Grindelwald;Öffentlich zugängliche Toilette und Dusche im Sportzentrum.;<p class="ql-align-justify"><strong><a href="https://www.google.ch/maps/place/Sportzentrum+Grindelwald/@46.623389,8.0334695,330m/data=!3m1!1e3!4m14!1m7!3m6!1s0x478f9b998ec92c7f:0xc89d3c8f60291e03!2sLuftseilbahn+Grindelwald+Pfingstegg!8m2!3d46.6232108!4d8.046915!16s%2Fg%2F1222c9qw!3m5!1s0x478f9955810c29cd:0x7c935c1d9a0abdb2!8m2!3d46.6230773!4d8.0353775!16s%2Fg%2F11cn8t4g22?hl=de&amp;entry=ttu&amp;g_ep=EgoyMDI1MDQwOS4wIKXMDSoASAFQAw%3D%3D" rel="noopener noreferrer" target="_blank">Zum Ziel navigieren (Google Maps)</a></strong></p><p></p><p>Die Toilettenanlage befindet sich im innenberiech des Sportzentrums. Zudem stehen im öffentlichen Hallenbad Duschen zur Verfügung. Hierfür muss jedoch während den Öffnungszeiten des Hallenbades ein normales Ticket erworben werden.</p>;8.035431504249575;46.62328434838105;Dorfstrasse 110;3818;Grindelwald;+41 33 854 12 30;sport@grindelwald.swiss;https://www.sportzentrum-grindelwald.ch/;[{'@type': 'ImageObject', 'contentUrl': 'https://jrtagpimtsoch.sos-ch-dk-2.exoscale-cdn.com/catalog/0/e/0/0/0e009d8cc8f7902c67453794753071c546a28ccb__W0A5326_by.davidbirri.jpg'}];2025-04-15T15:38:44+02:00
6ad3b628-f334-4f07-8e31-948cc699c2c1;Fischen am Bachalpsee;Der Bachalpsee, ein malerischer Bergsee in Grindelwald, bietet eine einzigartige Kulisse für passionierte Angler und ist innerhalb von einer Stunde von der Bergstation der Firstbahn erreichbar. Die Saison dauert vom 15. Juni bis und mit 31. Oktober.;Für das Angeln am Bachalpsee ist ein spezielles Anglerpatent erforderlich. Dieses Patent kann am Schalter von Grindelwald Tourismus für entweder einen Tag (CHF 30) oder vier Tage (CHF 100) erworben werden.

Jeder Fang muss mit Art und Länge in die Fangstatistik eingetragen werden und am Ende des Angeltages in den Briefkasten beim Unterstandhäuschen am See eingeworfen werden. Pro Tag dürfen maximal 4 Fische mit dem Mindestmass von 27 cm für alle Arten gefangen werden.;8.02091513054129;46.669542328388495;Dorfstrasse 110;3818;Grindelwald;0338541212;info@grindelwald.swiss;[{'@type': 'ImageObject', 'contentUrl': 'https://jrtagpimtsoch.sos-ch-dk-2.exoscale-cdn.com/catalog/4/2/a/d/42ad5fbc20d1442d2f0bad7b3aa884a747db2bd2_grindelwald_first_sommer_bachalpsee.jpg'}];2024-12-09T15:50:14+01:00
70e3b886-9c29-4d1e-bc8a-7da3b97f04c8;Abteilung Sicherheit Grindelwald;Die Abteilung Sicherheit bei der Gemeinde Grindelwald;<p><strong><a href="https://www.google.com/maps/place/Gemeindeverwaltung/@46.618665,7.9805233,19913m/data=!3m1!1e3!4m10!1m2!2m1!1seinwohnergemeinde+grindelwald!3m6!1s0x478f990007912001:0xfc37076a96b559d8!8m2!3d46.6381769!4d7.9485928!15sCh1laW53b2huZXJnZW1laW5kZSBncmluZGVsd2FsZJIBH211bmljaXBhbF9hZG1pbmlzdHJhdGlvbl9vZmZpY2XgAQA!16s%2Fg%2F11lcr0zy21?entry=ttu&amp;g_ep=EgoyMDI1MDQxMy4wIKXMDSoASAFQAw%3D%3D" rel="noopener noreferrer" target="_blank">Zum Ziel navigieren (Google Maps) </a></strong></p><p></p><p></p><p>In Grindelwald kümmert sich der Bereich Sicherheit/Verkehr um verschiedene Dienstleistungen. Sie können hier Veranstaltungen organisieren, Einstellhallenplätze mieten oder Fahrbewilligungen beantragen. Auch das Feuern im Wald und das Abhalten von Feuerwerken werden geregelt. Bei Unwetter oder besonderen Lagen steht der Sicherheitsdienst zur Verfügung. Zudem gibt es eine Meldestelle für vermisste oder gefundene Tiere.</p>;8.027593244798595;46.626703723591476;Spillstattstrasse 2;3818;Grindelwald;gemeindeverwaltung@gemeinde-grindelwald.ch;[{'@type': 'ImageObject', 'contentUrl': 'https://jrtagpimtsoch.sos-ch-dk-2.exoscale-cdn.com/catalog/2/9/2/9/29293b88324a9f553a06bff2fe05d5e871a1fce0_Gemeinde_TEAMLIST.png'}];2025-05-06T08:53:11+02:00
71eeff5a-836b-46bb-bdd5-9a421b263bd2;Naturmuseum Oberhasli;Hier erfährst du alles über die Fauna unserer Region.;Welchen Tieren begegne ich in den Alpen?
Wir zeigen dir die grosse Vielfalt zum Staunen und Lernen.

In verschiedenen Grossvitrinen zu Themen wie Berg- und Alpenregion, Vögel am Wasser, Hausbewohner oder Vögel und Tiere des Waldes, erhältst du Einblicke in die Fauna unserer Region. Nebst diversen Präparaten von Säugetieren und Vögeln wird dir im Naturmuseum Oberhasli auch noch die Vielfalt der Käfer- und Schmetterlingswelt mit all ihrer Farbenpracht näher gebracht.;8.190374841860466;46.72799105;Lenggasse 19;3860;Meiringen;+41 33 971 17 78;info@naturmuseum.org;https://naturmuseum.org;[{'@type': 'ImageObject', 'contentUrl': 'https://jrtagpimtsoch.sos-ch-dk-2.exoscale-cdn.com/catalog/3/9/1/0/3910cd81f75b1107eaaa66b3fe6675e67c4b9c96_Naturmuseum_Oberhasli.JPG'}];2024-12-09T15:50:15+01:00
777c10dc-4813-4a32-9d19-699f06571e24;Grindelwald Reisen;Grindelwald Reisen ist ein motiviertes und auf Ihre Bedürfnisse angepasstes Privatunternehmen im Berner Oberland, das Sie mit top-modernen Fahrzeugen für jeden Einsatz sicher und zuverlässig von A nach B bringt.;<p><strong><a href="https://www.google.com/maps/place/Grindelwald+Reisen+Kleinbus+Taxi/@46.7860122,5.7264405,399000m/data=!3m2!1e3!4b1!4m6!3m5!1s0x478f99d6a85973b9:0x754e91dcad67d0c8!8m2!3d46.8131873!4d8.224119!16s%2Fg%2F11ng0fdg25?entry=ttu&amp;g_ep=EgoyMDI1MDUxNS4xIKXMDSoASAFQAw%3D%3D" rel="noopener noreferrer" target="_blank">Zum Ziel navigieren (Google Maps)</a></strong> </p><p></p><p>Wir bieten Ihnen Leistungen mit Top Service: Flughafentransfers, Vereinsausflüge, Betriebsausflüge und individuelle Reisen ob national oder international.</p>;8.057984560502401;46.630875149999994;Obere Gletscherstrasse 86;3818;Grindelwald;+41 79 279 07 91;info@grindelwaldreisen.ch;https://www.grindelwaldreisen.ch/;[{'@type': 'ImageObject', 'contentUrl': 'https://jrtagpimtsoch.sos-ch-dk-2.exoscale-cdn.com/catalog/7/3/3/5/733550b421e8551e183f59412a31ac0a9cc20e63_csm_img_0457_a6251828c0.jpg'}];2025-05-27T08:23:51+02:00
78254ac2-69b7-43b5-bcca-8d935bbaa803;Grillstelle Boneren Hüttli / Lägerli;<p>Wer vom Coca-Cola Hüttli eine weitere halbe Stunde auf dem steileren Weg die nächste Felsstufe überwindet (Eisenleiter), findet sich urplötzlich auf einer von Tannen umgebenen verwunschenen Waldlichtung wieder, an deren Rand sich das Boneren-Hüttli befindet (1508 m ü. M.). Der Grillplatz ist mit einer Feuerstelle mit Grillrost (draussen und drinnen) ausgestatten.</p><p><br></p><p>Zugang: 1 ½ Stunden vom Parkplatz Gletscherschlucht auf dem Wanderweg Boneren – Alpiglen</p>;8.048826456069948;46.605380260559926;3818;Grindelwald;0338541212;info@grindelwald.swiss;[{'@type': 'ImageObject', 'contentUrl': 'https://jrtagpimtsoch.sos-ch-dk-2.exoscale-cdn.com/catalog/a/9/2/1/a921a6c1ddf2fcf9f05380ec65fe9953e94fc8a3_Boneren.png'}];2024-11-20T14:22:16+01:00
78b63175-f0fb-4d49-bd66-af52a21de4fa;Grillstelle Nodhalten;<div>Diese Feuerstelle der Schweizer Familie ist geeignet für Familien mit kleinen Kindern sowie grössere Gruppen. Die Feuerstelle ist mit Grillrost, Tischen und Bänken ausgestattet. Wunderschönes Panorama auf die Berge.</div><div><br></div><div>Zugang: Wanderweg Bort – Nodhalten – Aellfluh, 30 Min. zu Fuss von Bort. Oder, Bus Grindelwald – Waldspitz, Haltestelle Nodhalten, 5 Min zu Fuss.</div>;8.036853075027468;46.64001560331589;3818;Grindelwald;0338541212;info@grindelwald.swiss;[{'@type': 'ImageObject', 'contentUrl': 'https://jrtagpimtsoch.sos-ch-dk-2.exoscale-cdn.com/catalog/a/8/a/1/a8a1965a36a14f31b485df8f65538004951ea4c2_2209_0562_by.davidbirri.jpg'}];2024-11-20T14:22:16+01:00
798c7ac4-663f-4dec-a56b-fa0333420df8;Canyon Swing Grindelwald;Überwinde deine Angst!;120 km/h swing, 50 m freier Fall –  das erwartet dich beim Sprung in die 90 m tiefe Gletscherschlucht. Ein Seil bremst deinen freien Fall knapp über dem Fluss ab und schwingt dich mehrmals in einer Pendelbewegung durch die Schlucht. Eine Buchung im Voraus ist zwingend notwendig.;8.0466385;46.6133587;3818;Grindelwald;+41 33 224 07 07;info@outdoor.ch;https://outdoor.ch;[{'@type': 'ImageObject', 'contentUrl': 'https://jrtagpimtsoch.sos-ch-dk-2.exoscale-cdn.com/catalog/5/0/8/f/508f1af1026ebd2ca2433542c1e54be90df52e81_Canyon_Swing.jpg'}];2025-04-09T08:09:26+02:00
7c133c51-a872-4808-9069-98e796b1e705;First Cliff Walk by Tissot Grindelwald;Aussichtsssteg mit Nervenkitzel;Die Alpendohlen auf First haben es gut: Sie kreisen über Alpweiden, Wald und einem hohen Wasserfall. Auf dem Aussichtssteg bei der Terrasse des Bergrestaurants ahnst du, wie sich das anfühlen muss – Nervenkitzel inklusive: Der Steg ragt 45 Meter hinaus ins Nichts. Um ihn zu erreichen, begibst du dich zunächst die Westseite des First-Gipfels in schwindelnde Höhen: Auf dem First Cliff Walk by Tissot ist nicht nur die Aussicht ins Tal zum Abheben schön, sondern auch die bergseitige: Die Felsen mit ihren Schichten und Nischen dienen den Alpendohlen als Start- und Landeplatz.;8.05328965187073;46.660666479827725;3818;Grindelwald;+41 33 828 77 11;info@jungfrau.ch;https://jungfrau.ch;[{'@type': 'ImageObject', 'contentUrl': 'https://jrtagpimtsoch.sos-ch-dk-2.exoscale-cdn.com/catalog/9/b/0/8/9b0809e52414c95d1f1001195c80276e276b262f_first_cliff_walk__2_.jpg'}];2024-12-09T15:50:17+01:00
7d49b318-def9-44fa-8c49-33901d588668;Zwergenspielplatz Bidmi;<p>Der Zwergenspielplatz Bidmi liegt an der sonnigen Mittelstation Bidmi im Hasliberg, direkt an der Bergbahnlinie von Reuti nach M&auml;gisalp. Inspiriert von den sagenhaften Haslizwergen, ist er liebevoll mit Holzh&uuml;tten, Klettert&uuml;rmen und Rutschbahnen gestaltet. Die Kinder k&ouml;nnen hier spielerisch in die Fantasiewelt der Zwerge eintauchen, Abenteuer erleben und die Natur entdecken. W&auml;hrenddessen geniessen Eltern die herrliche Aussicht &uuml;ber das Haslital und die umliegende Bergwelt.&nbsp;</p>;8.218250870704653;46.74416905990225;Bidmi;+41 33 550 50 50;info@meiringen-hasliberg.ch;https://meiringen-hasliberg.ch/;[{'@type': 'ImageObject', 'contentUrl': 'https://jrtagpimtsoch.sos-ch-dk-2.exoscale-cdn.com/catalog/1/4/4/8/1448528de078a8b1f29dafcf8e628216c7fada31_Bidmi2.jpg'}];2025-08-25T09:31:58+02:00
7e6cd5fb-5cc7-464d-a485-43bf150f76ba;Spielplatz Pfingstegg;Geniesse den grossen Abenteuerspielplatz auf der Pfingstegg. Von spassigen Rutschbahnen, zu einer kleinen Tyrolienne bis zu einer Hüpfburg kann man dort alles finden. Nach dem anstrengenden Herumtollen auf dem Spielplatz kann sich man im Bergrestaurant Pfingstegg eine kleine Erfrischung gönnen.;8.05642;46.6174375;Rybisgässli 25;3818;Grindelwald;+41338532626;info@pfingstegg.ch;https://www.pfingstegg.ch/;[{'@type': 'ImageObject', 'contentUrl': 'https://jrtagpimtsoch.sos-ch-dk-2.exoscale-cdn.com/catalog/9/e/d/9/9ed9bb06b62b816391266c26f62f9102f7fb3c82_2209_0572_by.davidbirri.jpg'}];2025-08-25T09:32:38+02:00
803f41ba-1076-4186-a6e2-f9fd81e35de9;Ortsbus Grindelwald Linie 121;Gletscherschlucht - Golf - Aspi - Mettenberg - Mettenbergbrücke - Pfingsteggbahn - Grindelwald (Kirche) - Firstbahn - Grindelwalderhof - Sportzentrum - Grindelwald (Bahnhof) - Gemeindehaus - Spillstatt - Salzmannsegg - Tuftbach - Stein - Stutz - Stein - Tuftbach - Gaggi Säge - Naturfreundehaus - Kreuzweg - Bodmi - Steinbillen - Panorama;<p><a href="https://www.google.com/maps/place/Grindelwald,+Oberer+Gletscher/@46.6313369,7.9939837,13z/data=!4m10!1m2!2m1!1soberer+gletscher+grindelwald!3m6!1s0x478f9b9127a3b27b:0xda5ef383f153aa5f!8m2!3d46.632047!4d8.07086!15sChxvYmVyZXIgZ2xldHNjaGVyIGdyaW5kZWx3YWxkkgEIYnVzX3N0b3DgAQA!16s%2Fg%2F1td7x_jr?entry=ttu&amp;g_ep=EgoyMDI1MDIwOS4wIKXMDSoASAFQAw%3D%3D" style="font-weight: bold;">Zum Ziel navigieren (Google Maps)</a><br></p><p><br></p><p>Die Ortslinie 121 in Grindelwald bringt dich vom Oberen Gletscher über den Bahnhof bis zum Terminal. Auf dieser Route erlebst du die beeindruckende Landschaft des Berner Oberlandes. Die Linie fährt durch malerische Orte wie Blümlisalp, Alpenrose und Lauberhorn. Egal ob du zum Sportzentrum oder zur Firstbahn möchtest, diese Linie ist ideal für deine Erkundungstour. Sie verkehrt vom Mitte Dezember bis zum Mitte Mai und bietet dir eine bequeme Möglichkeit, Grindelwald zu entdecken.</p>;8.034316495385976;46.62400296259994;3818;Grindelwald;+41 33 854 16 16;info@grindelwaldbus.ch;https://www.grindelwaldbus.ch;[{'@type': 'ImageObject', 'contentUrl': 'https://jrtagpimtsoch.sos-ch-dk-2.exoscale-cdn.com/catalog/b/3/0/4/b304ede7445bf33f9bf1024642c04c760d1994a6_GrindelwaldBus_queer1.png'}];2025-05-27T09:04:44+02:00
807980d6-9985-45a5-b43a-d460fba228e0;Ballenberg;Freilichtmuseum der Schweiz;Ein Museum voller Leben: Entdecke die Schweiz in einem Tag zu Fuss oder mit der Pferdekutsche. Im Freilichtmuseum Ballenberg können über 100 originale, jahrhundertalte Schweizer Häuser und Höfe besichtigt werden. Reise 100, 200 und mehr Jahre zurück und erlebe, wie früher gelebt und gearbeitet wurde.

Highlights:
Über 100 Schweizer Häuser und Höfe zum Besichtigen und Berühren
Mehr als 200 Bauernhoftiere, welche gestreichelt und zum Teil gefüttert werden können
Täglich können über 8 Handwerke besichtigt und ausprobiert werden
Diverse Kinderspiele und einen Kinderspielplatz zum Austoben und Lachen
Ein Karussell für kleine und grosse Kinder
Haus zum Berühren für Jung und Alt
Diverse Grill- und Picknickplätze laden zum Grillieren und Geniessen ein
Drei Restaurants zum Verpflegen und Verwöhnen
Ballenberg-Läden mit Spezialitäten vom Ballenberg
Erholung bieten die Blumen-, Gemüse- und Kräutergärten
Attraktive Veranstaltungen über das ganze Jahr verteilt;8.084871;46.7487621;Museumsstrasse 100;3858;Hofstetten bei Brienz;+41 33 952 10 30;info@ballenberg.ch;https://landschaftstheater-ballenberg.ch/de/Willkommen;[{'@type': 'ImageObject', 'contentUrl': 'https://jrtagpimtsoch.sos-ch-dk-2.exoscale-cdn.com/catalog/4/7/6/a/476a726709e2beeaea2b7dba97595eeb6ad7c3ca_Ballenberg_Header.jpg'}];2025-07-07T14:38:34+02:00
841191ae-6033-4f03-8f8d-980930cac059;Urschweizerolympiade;Urschweizerolympiade wie zu Zeiten von Wilhelm Tell;Fördern Sie Ihren Teamspirit bei verschiedenen Disziplinen unserer Uschweizerolympiade. Punkte sammeln Sie im Armbrustschiessen, Steinstossen, Nageln, MaxiSki und Hufeisenwerfen. Die Aufgaben fordern Geschicklichkeit, Treffsicherheit aber auch Harmonie beim MaxiSki laufen. Ein Riesengaudi für das ganze Team.

Verbinden Sie eine unsere Aktivitäten mit einer Übernachtung in unserem Tipidorf und geniessen Sie ein Naturerlebnis, dass Sie nie vergessen werden! 

Sie haben einen speziellen Wunsch? Wir finden bestimmt die perfekte Lösung.
;8.1540826;46.7465502;Haslital;+41 76 572 54 72;info@hasli-aktiv.ch;https://hasli-aktiv.ch/de/home/welcome;[{'@type': 'ImageObject', 'contentUrl': 'https://jrtagpimtsoch.sos-ch-dk-2.exoscale-cdn.com/catalog/5/0/d/9/50d9878d2d6c1586b7d0099ab13f15b90c80439f_MaxiSki.JPG'}];2024-12-09T15:50:17+01:00
85b4867a-0cd0-4464-adc7-718a943b0b08;Trotti Bike und Monster-Trotti Hasliberg;Der Riesenspass für die ganze Familie;Trotti Bike Mägisalp-Bidmi
Wem es zu Fuss zu gemächlich ist, der sollte die rasante Fahrt mit dem Trotti Bike ausprobieren. Ein Erlebnis für jung und alt. Geniesse die drei Kilometer lange Fahrt mit dem Trotti Bike von Mägisalp nach Bidmi .

Die Abfahrt dauert ca. 15 bis 20 Minuten.
Helme sind vorhanden. Kinder sollten Velofahren können.
Die Trotti Bikes können während des Sommerbetriebs bei der Gondelbahnstation Mägisalp gemietet werden. Bitte beachte die Betriebszeiten.

Wir empfehlen dir eine Tageskarte für 2 Zonen (ab Hasliberg Reuti oder Hasliberg Twing) oder 2+ Zonen ab Meiringen zu lösen.

Monster-Trotti Käserstatt-Lischen
Das spezielle Fahrerlebnis für Gross und Klein. Mit dem Monster-Trotti von Käserstatt nach Lischen entlang der Alpstrasse.

Die Abfahrt dauert ca. 15 bis 20 Minuten.
Velohelme sind vorhanden. Kinder sollten Velofahren können.
Die Monster-Trotti werden während des Sommerbetriebs der Gondelbahn Twing-Käserstatt zur Miete angeboten. Bitte beachte die Betriebszeiten.

Wir empfehlen dir eine Tageskarte für 2 Zonen (ab Hasliberg Twing / Reuti) oder 2+ Zonen ab Meiringen zu lösen.;8.195042;46.7452248;Twing 365L;6084;Hasliberg Wasserwendi;+41 33 550 50 50;info@meiringen-hasliberg.ch;https://meiringen-hasliberg.ch;[{'@type': 'ImageObject', 'contentUrl': 'https://jrtagpimtsoch.sos-ch-dk-2.exoscale-cdn.com/catalog/1/e/5/4/1e5423eb3e749ef5f53b3e206151c6828b8e625b_Monster_Trotti.jpg'}];2024-12-09T15:50:17+01:00
87b425c4-7de6-4770-a86d-68bed2bb86ff;Heimatmuseum Grindelwald;Geschichte – Land- und Alpwirtschaft – Bergsteigen – Wintersport – Bahnen – Handwerk – Technik - Bergmalerei;<p><strong><a href="https://www.google.com/maps/place/Museum+Grindelwald/@46.625021,8.0436031,17z/data=!3m1!4b1!4m6!3m5!1s0x478f9bfa26255339:0x46430da1875704c8!8m2!3d46.625021!4d8.046178!16s%2Fg%2F1tpljn4g?entry=ttu&amp;g_ep=EgoyMDI0MTIwNC4wIKXMDSoASAFQAw%3D%3D" rel="noopener noreferrer" target="_blank">Zum Ziel navigieren (Google Maps)</a></strong></p><p></p><p>Das Grindelwald Museum befindet bei der Kirche, rund 1 km vom Bahnhof entfernt. Es verfügt über ein vielfältiges Angebot für ein Publikum jeden Alters und mit unterschiedlichen Interessen. Dauerausstellungen zu den Themen Land- und Alpwirtschaft, Bergsteigen, Bergführer, Eiger, Wintersport, Bahnen, Handwerk und Technik. Halbjährlich wechselnde Sonderausstellungen.</p>;8.046227070738654;46.62499415;Dorfstrasse 204;3818;Grindelwald;+41 33 853 43 02;grindelwald-museum@bluewin.ch;https://grindelwald-museum.ch/;[{'@type': 'ImageObject', 'contentUrl': 'https://jrtagpimtsoch.sos-ch-dk-2.exoscale-cdn.com/catalog/3/2/c/2/32c28dc5bb3d1ffe69133918a22b9398a32a4c32_2207_2161_by.davidbirri.jpg'}];2025-06-02T11:06:18+02:00
89fe52b3-ba8e-4bba-a28c-33fffaa100a5;Schiessolympiade;Volltreffer bei unserer Schiessolympiade;Konzentration, Körperwahrnehmung und Intuition sind Voraussetzungen, um mit Pfeil und Bogen ins Schwarze zu treffen. Sie lernen, intuitiv zu schiessen, das heisst ohne Ziel - Vorrichtung. Auch mit dem Blasrohr ist Ihr Gefühl für die Flugbahn des Pfeiles wichtiger als das klassische Zielen, welches beim Einsatz der Armbrust zum Zuge kommt. In dieser Olympiade absolvieren Sie die Disziplinen Bogen-, Blasrohr und Armbrustschiessen.

Verbinden Sie eine unsere Aktivitäten mit einer Übernachtung in unserem Tipidorf und geniessen Sie ein Naturerlebnis, dass Sie nie vergessen werden! 

Sie haben einen speziellen Wunsch? Wir finden bestimmt die perfekte Lösung.
;8.153851556721989;46.7467007;Lenggasse 4;3860;Meiringen;+41765725472;info@hasli-aktiv.ch;https://hasli-aktiv.ch/fr/home/welcome;[{'@type': 'ImageObject', 'contentUrl': 'https://jrtagpimtsoch.sos-ch-dk-2.exoscale-cdn.com/catalog/1/b/6/a/1b6a61399e9f5205fba6cfbf05df69e3e56ddb73_Schiessolympiade.jpg'}];2024-12-09T15:50:19+01:00
8b66e899-4711-43c2-b74b-eaf0d2d82d33;Museum der Landschaft Hasli;Brauchtum und Kulturgut;Woher kommt der Hasliadler?
Was sind Strahlen?
Warum war das Hasli einst bedeutend auf der Nord-Süd-Route?
Wann wurde der Lauf der Aare im Talboden korrigiert?

Brauchtum und Kulturgut gehen in der heutigen, schnelllebigen Zeit schnell verloren. Das Museum der Landschaft sammelt und dokumentiert diese Zeitzeugen und den Handel und Wandel früherer Zeiten. In Sonderausstellungen werden Episoden und geschichtsträchtige Ereignisse aus dem Haslital beleuchtet.;8.1893695;46.7291649;Kapellen 1;3860;Meiringen;+41 33 971 25 01;info@haslimuseum.ch;https://haslimuseum.ch;[{'@type': 'ImageObject', 'contentUrl': 'https://jrtagpimtsoch.sos-ch-dk-2.exoscale-cdn.com/catalog/5/a/a/9/5aa9a161b9170420883deb79a7a4630b20c2f5d0_Haslimuseum.JPG'}];2024-12-09T15:50:19+01:00
92164cce-fa91-47ed-88a3-05476de7c590;Helikopter Rundflug Interlaken;Fliege über Eiger, Mönch und Jungfrau und erlebe eine unglaubliche Aussicht auf die Alpen und Seen von Interlaken.;<p><span style="background-color: rgb(255, 255, 255); color: rgb(79, 94, 111);">Fliege über das Lütschental, Wengen, Männlichen und Kleine Scheidegg zu den hohen Gipfeln von Eiger, Mönch und Jungfrau. Näher an der Eigernordwand sind nur Bergsteiger - ein beeindruckender Anblick aus dem Helikopter. Vorbei am Top of Europe Jungfraujoch mit seiner imposanten Sphinx und auf dem Rückweg kannst du die sanfte Landschaft mit den tiefblauen Seen von Interlaken geniessen. Helikopterfliegen im Hochgebirge ist faszinierend und eine der besten Möglichkeiten, die Berner Alpen zu erkunden, abgesehen davon, dass es sicher und bequem ist.</span></p>;7.8783559799194345;46.6478453319861;Buchenstutz 136;3814;Gsteigwiler;+41 33 828 90 00;mail@swisshelicopter.ch;https://swisshelicopter.ch/de/;[{'@type': 'ImageObject', 'contentUrl': 'https://jrtagpimtsoch.sos-ch-dk-2.exoscale-cdn.com/catalog/9/d/8/d/9d8d63b147c29c19885f40222c3c5127ef13f787_900x600_1_50_51a9d51f0cbb6c94ab4f405576793ccf.jpg'}];2025-05-09T17:09:18+02:00
968d3ae1-d138-41bc-ab8a-a9f61ac8d241;Bahnhof Grindelwald ;Bahnhof Grindelwald: Startpunkt für Bergabenteuer.;<p><strong><u><a href="https://www.google.com/maps/search/bahnhof+grindelwald/@46.6243063,8.0313945,17z/data=!3m1!4b1?entry=ttu&amp;g_ep=EgoyMDI1MDQyNy4xIKXMDSoASAFQAw%3D%3D" rel="noopener noreferrer" target="_blank">Zum Ziel navigieren (Google Maps)</a></u></strong></p><p></p><p></p><p>Der Bahnhof Grindelwald ist der Ausgangspunkt für zahlreiche Bergabenteuer. Hier endet die Schmalspurbahn BOB, die Reisende von Interlaken Ost in die Berge bringt. Doch das ist erst der Anfang: Die Wengernalpbahn führt weiter zur Kleinen Scheidegg, wo atemberaubende Aussichten auf die Reisende warten. Der Bahnhof bietet Annehmlichkeiten wie Ticketautomat, Schliessfächer und Toiletten. Parkmöglichkeiten sind im Eiger+ Parkhaus vorhanden.</p>;8.032741139931609;46.624468202843445;3818;Grindelwald;+41 33 828 75 10;fp.gw@jungfrau.ch;https://www.jungfrau.ch/de-ch/anreise-bahnhoefe-parking/bahnhof-grindelwald/;[{'@type': 'ImageObject', 'contentUrl': 'https://jrtagpimtsoch.sos-ch-dk-2.exoscale-cdn.com/catalog/3/3/4/6/33469b9468ad262aecee92dab3b19191553c61ef_Bahnhof_Grindelwald.jpg'}];2025-05-02T09:04:49+02:00
9f5d3b08-e7ee-4960-83cc-250d09a16dbb;Spielplatz Alpiglen;Spielplatz beim Berghaus Alpigeln;<p>Nach einer langen Wanderung kannst du im Berghaus Alpiglen wieder Kraft auftanken, während sich die Kinder weiter auf dem Spielplatz austoben können. Das Ganze mit einer wunderschönen Aussicht auf die umliegenden Berge.</p>;8.003733158111574;46.60038445526739;3818;Grindelwald;+033 853 11 30;info@alpiglen.ch;https://alpiglen.ch/;[{'@type': 'ImageObject', 'contentUrl': 'https://jrtagpimtsoch.sos-ch-dk-2.exoscale-cdn.com/catalog/d/5/3/f/d53f0564d77c50c1076a4914fe1207d76b0954f4_2207_4_4.JPG'}];2025-04-15T09:53:59+02:00
a517cf4a-4c74-4ea1-aad6-b3984c9b5953;Thrill Walk Birg;Nervenkitzel par excellence;Wer sich von Mürren her auf den Weg Richtung Schilthorn macht, kommt nach der ersten Gondelfahrt bei der Mittelstation Birg an. Hier solltest du einen längeren Halt einplanen, um den Thrill Walk zu besuchen. Er garantiert allen, die es wagen ihn zu überschreiten, einen höheren Puls.

Der rund 200 Meter lange Felsensteg wurde entlang des senkrechten Abgrunds in den Fels gebaut. Die Konstruktion aus Stahl und Glas sowie einem Boden aus Gitterrosten, fügt sich nahtlos in die kantige Felslandschaft ein.

Für den Besuch des Thrill Walks solltest du etwa 45 Minuten einplanen, damit du auch noch genügend Zeit hast hast, ein paar spektakuläre Fotos zu schiessen.

Neben dem Gitterrost, aus dem der Steg und die Treppe grösstenteils bestehen, gibt es rund 20 Meter Glasboden, Viehrostboden-Elemente und eine neun Meter lange Seilbrücke samt Sicherheitsnetz. Ein acht Meter langer Kriechtunnel vervollständigt das Erlebnis.

Der Einstieg zum Thrill Walk befindet sich auf der Seite der Panoramaterrasse der Station Birg.
Nach den 200 Metern voller Nervenkitzel erreichst du das weiter unten liegende Ende des Stegs. Von dort führt ein Schotterweg (im Winter schneebedeckt) hinauf zum Stationsgebäude.;7.8579039;46.561869;3825;Mürren;+41 33 826 00 07;info@schilthorn.ch;https://schilthorn.ch;[{'@type': 'ImageObject', 'contentUrl': 'https://jrtagpimtsoch.sos-ch-dk-2.exoscale-cdn.com/catalog/2/f/0/9/2f09652063e0eb5d2bf960a19a9bfda0131e330f_muerren_birg__3_.jpg'}];2024-12-09T15:50:22+01:00
afe88685-f302-4ec5-971b-c6cbae150d5a;smarTrail Lauterbrunnen;Auf dem digitalen Rätselweg durchs Dorf bummeln;Alles, was es für die Teilnahme braucht, ist ein internetfähiges Smartphone. Über eine virtuelle Karte wirst du zu verschiedenen Posten geführt. Sobald du bei den entsprechenden Koordinaten bist, werden die digitalen Inhalte auf dem Handydisplay angezeigt.

Bei den Posten gibt es verschiedene Rätsel zu lösen. Wenn alle Posten besucht und alle Fragen beantwortet wurden, ist das Spiel beendet und es erwartet dich eine kleine Belohnung. 

Das Smartphone wird intensiv genutzt, ein voller Akku ist deshalb von Vorteil.;7.907431007988182;46.59697904155696;Stutzli 460;3822;Lauterbrunnen;+41 33 856 85 68;info@lauterbrunnen.swiss;https://lauterbrunnen.swiss;[{'@type': 'ImageObject', 'contentUrl': 'https://jrtagpimtsoch.sos-ch-dk-2.exoscale-cdn.com/catalog/9/5/6/f/956fca400c9c367438416e8fe5acd02c3eb17d2b_Lauterbrunnen.jpg'}];2024-12-09T15:50:24+01:00
b0b3fc37-ed80-4993-b4c7-e042fe4817a3;Sennenspielplatz Männlichen;Eine 8,5 Meter hohe Riesenkuh und die soll auch noch begehbar sein? So etwas gibt es nur auf dem Männlichen. Lesen Sie, was Sie sonst noch vom Sennenspielplatz erwarten dürfen.;Kinder lieben Spielplätze und wir lieben Kinder. Deshalb haben wir mit dem Sennenspielplatz ein Paradies für unsere kleinen Gäste geschaffen. Die aus Holz und Stahl konstruierte Kuh hat ein Innenleben zum Staunen, eine Aussichtsplattform und eine Rutschbahn. Zum Spielplatz gehören zudem eine Wippe, eine Schaukel, kleine Trampoline und vieles mehr. Ihrem Kind wird es nicht langweilig und Ihnen bestimmt auch nicht. Von der Sonnenterrasse des Berghauses Männlichen sehen Sie nämlich direkt auf den Spielplatz.;7.942268624379357;46.6110326;3818;Grindelwald;+41338287112;mail@maennlichen.ch;https://www.maennlichen.ch/de/;[{'@type': 'ImageObject', 'contentUrl': 'https://jrtagpimtsoch.sos-ch-dk-2.exoscale-cdn.com/catalog/9/b/a/7/9ba7b34479bfcdb44c21cfb81347805a981e3fb8_Sennenspielplatz_by_davidbirri__22_.jpg'}];2025-08-25T09:10:35+02:00
b21c3e62-3c7d-4084-b5f0-30e3c91bf787;Grillstelle Gletscherschlucht;<p>In bester Lage am Waldrand und in der Nähe einer offenen Wiese ist diesen Grillplatz vom Parkplatz Gletscherschlucht leicht erreichbar. Kann mit einem Besuch der Schlucht oder einer Wanderung entlang des Flusses kombiniert werden Jedes Jahr im Juni findet entlang der Erlenpromenade das Land Art Festival statt. Die Schutzhütte ist mit Tischen und bänken ausgestattet. Ein grosser Grill, Aufhänger für Kessel und Brennholz sowie Strom sind vorhanden.</p>;8.045393228530886;46.6128974871045;3818;Grindelwald;0338541212;info@grindelwald.swiss;[{'@type': 'ImageObject', 'contentUrl': 'https://jrtagpimtsoch.sos-ch-dk-2.exoscale-cdn.com/catalog/a/2/8/9/a289a7ed1f89292c19198f1a35fecb35654f7336_Gletscherschlucht.png'}];2024-11-20T14:22:16+01:00
b4be0b97-bc55-49eb-b457-af49430603c8;Grillstelle Öpfelchüechliweg;<p>Der kurzweilige Öpfelchüechliweg verbindet Spiel, Spass und Wissenswertes über den Apfel. Der Weg führt mehrheitlich sanft hinab über saftige Alpweiden, blumenreiche Wiesen und lauschige Waldpartien. Vor Ihnen breitet sich das atemberaubende Bergpanorama mit der berühmten Eigernordwand aus. Unterwegs hat es zwei schön gelegene Rastplätze mit Feuerstelle, Sitzgelegenheit sowie einen Brunnen mit Trinkwasser.</p><p>Zugang: Mit der Männlichenbahn bis Holenstein, ¾ - 1 Stunde zu Fuss auf dem Wanderweg Richtung Brandegg.</p>;7.99633026123047;46.610594519152535;3818;Grindelwald;0338541212;info@grindelwald.swiss;[{'@type': 'ImageObject', 'contentUrl': 'https://jrtagpimtsoch.sos-ch-dk-2.exoscale-cdn.com/catalog/5/6/f/7/56f7c9b46be501e878105d0511e9606000510479___pfelch__echli.png'}];2024-11-20T14:22:16+01:00
b63c9196-7090-4ec7-be11-cb69d8889b72;Alpenspielplatz Bort;Die Kleinen mögen noch nicht hoch hinaus?;Auf dem 700 Quadratmeter grossen Alpenspielplatz Bort können sie die Vorzüge der Alpen trotzdem geniessen. Da gibt es beispielsweise ein Bergbächlein zu stauen und Wildtiere zu begrüssen: Murmeltier und Eichhörnchen erwarten sie in Form von Wippen. Ganz nebenbei verbessern die Kinder beim Balancieren auf Netzen und Seilen ihr Gleichgewicht und bereiten sich so auf Wanderungen in unwegsamem Gelände vor. So sind sie bestens vorbereitet, um in einem anderen Jahr mit Mama und Papa die grosse Bergtour zu wagen.;8.051682681878097;46.6462773;Dorfstrasse 187;3818;Grindelwald;+41 33 828 72 33;info@jungfrau.ch;https://www.jungfrau.ch/fr-ch/grindelwaldfirst/aire-de-jeu-alpine-de-bort/;[{'@type': 'ImageObject', 'contentUrl': 'https://jrtagpimtsoch.sos-ch-dk-2.exoscale-cdn.com/catalog/0/9/0/c/090c098488d1d8c229a569ad151578cbefa16cc6_grindelwald_first_sommer_alpenspielplatz_bort_01.jpg'}];2025-08-25T09:33:07+02:00
b73a6124-f04a-44df-b67e-104a0f629383;Pända Snowpark Schilthorn;Das Freestyle-Paradies im Skigebiet Mürren-Schilthorn;Vor dem überragenden Panorama stampft Pända Freestyle jeden Winter einen Snowpark der Extraklasse aus dem Schnee.
Nicht nur der schneesichere Standort lässt den Freestylern nichts zu wünschen übrig, sondern auch die Reihe an Contests, Coachings und anderen Events, die jede Saison durchgeführt werden.

Anfänger*innen versuchen sich hier auf leichten Roller Jumps, für Fortgeschrittene gibt es alle Arten von Rails und für die, die ein spezielles Bild wollen, wird der Lollipop aufgestellt.&nbsp;<div>Der Park wird im Laufe der Wintersaison pausenlos geformt und weiterentwickelt. Das Shapeteam lässt seiner Kreativität hier nur selten Grenzen setzen.&nbsp;Das umfangreiche Set-up umfasst verschiedene Jibs, Rails und Boxen sowie eine Kicker-Line.</div>;7.889256477355958;46.57048880412768;3825;Mürren;+41 33 826 00 07;info@schilthorn.ch;https://schilthorn.ch;[{'@type': 'ImageObject', 'contentUrl': 'https://jrtagpimtsoch.sos-ch-dk-2.exoscale-cdn.com/catalog/1/5/8/2/1582f131e343a7d8db1064957a3b6917d6f583c5__CXD3138.jpg'}];2025-02-05T16:53:43+01:00
b74757d8-ab2a-4677-b216-5717544bb325;Grillstelle Lieselotteweg;<p>Die berühmte Bilderbuch-Kuh aus Westfalen in Deutschland macht Ferien auf den Alpweiden am Männlichen. Begleite Lieselotte auf ihren Bergabenteuern und geniesse gemeinsam mit ihr und den Hühnern die atemberaubende Aussicht.</p><p>Zugang: Der Lieselotte Themenweg befindet sich zwischen der Bergstation Männlichen und der Mittelstation Holenstein. Reine Wanderzeit 1 ½ Stunde. Schön gelegener picknick-Platz mit mehreren Feuerstellen (Holz vorhanden)</p>;7.964444160461427;46.615412524145185;3818;Grindelwald;0338541212;info@grindelwald.swiss;[{'@type': 'ImageObject', 'contentUrl': 'https://jrtagpimtsoch.sos-ch-dk-2.exoscale-cdn.com/catalog/b/d/e/d/bded4a475f66d444a84ddca9a3bba03dbf708a0d_2209_0562_by.davidbirri.jpg'}];2024-11-20T14:22:16+01:00
bb4ff267-85f3-40b0-9489-4bab716560a1;Öffentliche Toilette Bahnhof;Öffentlich zugängliche Toilette neben dem Bahnhof Grindelwald.;<p class="ql-align-justify"><strong><a href="https://www.google.ch/maps/place/Grindelwald/@46.6252618,8.0336449,622m/data=!3m1!1e3!4m6!3m5!1s0x478f99544ae30f95:0x5d371c68df9c7ac7!8m2!3d46.6243756!4d8.0334819!16s%2Fm%2F03cl9dk?hl=de&amp;entry=ttu&amp;g_ep=EgoyMDI1MDQwOS4wIKXMDSoASAFQAw%3D%3D" rel="noopener noreferrer" target="_blank">Zum Ziel navigieren (Google Maps)</a></strong></p><p></p><p>Die Toilettenanlage befindet gegenüber vom Bahnhof neben dem Kiosk.</p>;8.033199906349184;46.62464015107556;3818;Grindelwald;+41 33 854 12 12;info@grindelwald.swiss;https://grindelwald.swiss/de/;[{'@type': 'ImageObject', 'contentUrl': 'https://jrtagpimtsoch.sos-ch-dk-2.exoscale-cdn.com/catalog/4/5/1/1/45117e5875a2b147def01709d87c72ffc2bfcaeb_DSC05281.JPG'}];2025-04-15T14:33:54+02:00
c09befab-78f8-4cfd-abc1-d9ba6c682299;Öffentliche Toilette Kirche;Öffentlich zugängliche Toilette neben der Kirche.;<p class="ql-align-justify"><strong><a href="https://www.google.ch/maps/place/Toillettes+reformierte+Kirche/@46.6251694,8.0464333,131m/data=!3m1!1e3!4m6!3m5!1s0x478f9bca8285378d:0x519a080b8256006b!8m2!3d46.6250959!4d8.0462471!16s%2Fg%2F11v03mmzq8?hl=de&amp;entry=ttu&amp;g_ep=EgoyMDI1MDQwOS4wIKXMDSoASAFQAw%3D%3D" rel="noopener noreferrer" target="_blank">Zum Ziel navigieren (Google Maps)</a></strong></p><p></p><p>Die Toilettenanlage befindet sich im selben Gebäude wie das Grindelwald Museum. Der Eingang ist auf der linken Seite des Gebäudes.</p>;8.046315908432009;46.625037920885276;3818;Grindelwald;+41 33 854 12 12;info@grindelwald.swiss;https://grindelwald.swiss/de/;[{'@type': 'ImageObject', 'contentUrl': 'https://jrtagpimtsoch.sos-ch-dk-2.exoscale-cdn.com/catalog/7/6/8/b/768bf993df5ae2d9c3e5532f0aa32392792a578d_DSC05225.JPG'}];2025-04-15T13:50:58+02:00
c0bf59cb-54cb-48bc-a79e-3f6bcf9c2134;Öffentliche Toilette Kongresssaal;Öffentlich zugängliche Toilette beim Kongresssaal;<p class="ql-align-justify"><strong><a href="https://www.google.ch/maps/place/%C3%96ffentliche+Toilette/@46.6241155,8.0426465,156m/data=!3m1!1e3!4m10!1m2!2m1!1s%C3%96ffentliches+WC!3m6!1s0x478f9bf945d5fc9f:0x1afa1816a2a3fd6a!8m2!3d46.6241179!4d8.0431019!15sChDDlmZmZW50bGljaGVzIFdDkgEPcHVibGljX2JhdGhyb29t4AEA!16s%2Fg%2F11f3tgfr1h?hl=de&amp;entry=ttu&amp;g_ep=EgoyMDI1MDQwOS4wIKXMDSoASAFQAw%3D%3D" rel="noopener noreferrer" target="_blank">Zum Ziel navigieren (Google Maps)</a></strong></p><p></p><p>Die Toilettenanlage befindet sich seitlich am Kongresssaal und ist vom Parkplatz der Firstbahn neben dem Hotel Sunstar zugänglich.</p>;8.043129444122316;46.624128056338144;3818;Grindelwald;+41 33 854 12 12;info@grindelwald.swiss;https://grindelwald.swiss/de/;[{'@type': 'ImageObject', 'contentUrl': 'https://jrtagpimtsoch.sos-ch-dk-2.exoscale-cdn.com/catalog/c/2/8/7/c2873151e284c3725f9942ababc708df95963173_DSC05216.JPG'}];2025-04-15T14:06:01+02:00
c0e4ed4f-d73a-45e5-a67b-ecc4d165197f;Spielplatz Brandegg;Spielplatz direkt neben dem Bergrestaurant Brandegg.;<p>Direkt neben dem Bergrestaurant Brandegg befindet sich dieser schöner Spielplatz. Während du die legendären Apfelküchlein im Restaurant geniesst, können sich die Kinder draussen austoben.</p>;8.010604977607729;46.60905030407193;3818;Grindelwald;033 853 10 57;info@brandegg.ch;https://www.brandegg.ch/;[{'@type': 'ImageObject', 'contentUrl': 'https://jrtagpimtsoch.sos-ch-dk-2.exoscale-cdn.com/catalog/4/9/9/8/4998b816b22a50309223a78fcfe79a1674780f75_22A660_1.JPG'}];2025-04-15T09:41:11+02:00
c43dbd2e-9ff7-412b-a973-8d9af8d84565;First Glider;Top of Adventure – In den Fängen eines Adlers;Mit einem Greifvogel zu fliegen, kann beglückend sein. Dann nämlich, wenn dich der Adler namens First Glider auf eine luftige Reise mitnimmt. Du schwebst dabei bäuchlings durch die Bergluft und geniesst Panorama und Tempo: Erst zieht dich der First Glider von Schreckfeld mit 72 Sachen rückwärts auf First. Auf dem Rückweg startest du dann mit dem Adler richtig durch. Er und seine Mitflieger sausen die 800 Meter lange Flugstrecke mit bis zu 83 Stundenkilometern hinunter.

Mindestalter: 10 Jahre
Mindestgrösse: 130 cm;8.0551372;46.6592539;Dorfstrasse 187;3818;Grindelwald;+41 33 828 77 11;info@jungfrau.ch;https://jungfrau.ch;[{'@type': 'ImageObject', 'contentUrl': 'https://jrtagpimtsoch.sos-ch-dk-2.exoscale-cdn.com/catalog/5/f/3/0/5f30ab13fcf9066b4ecd1f81d45a428787a6495d_first_glider_winter.jpg'}];2024-12-09T15:50:27+01:00
c8da9505-3310-4b87-a8b7-d2659bf2bfe8;Tourist Office Grindelwald;Die Gästeinformation in Grindelwald bietet hilfreiche Auskünfte zu Aktivitäten, Veranstaltungen und touristischen Angeboten.;<p><a href="https://www.google.com/maps/place/Grindelwald+Tourismus/@46.6234627,8.032816,17z/data=!3m1!4b1!4m6!3m5!1s0x478f995583721c37:0xb24f25fc0461aaa2!8m2!3d46.623459!4d8.0353909!16s%2Fg%2F1ths880f?entry=ttu&amp;g_ep=EgoyMDI0MTExOS4yIKXMDSoASAFQAw%3D%3D" target="_blank" style="font-weight: bold;">Zum Ziel navigieren (Google Maps)</a></p><p><br></p><p>Die Gästeinformation in Grindelwald bietet den Besuchern umfassende Auskünfte über lokale Aktivitäten, Sehenswürdigkeiten, Wander- und Skirouten sowie Veranstaltungen und bietet Unterstützung bei der Planung von Ausflügen und der Nutzung öffentlicher Verkehrsmittel.</p>;8.0356699;46.6233543;3818;Grindelwald;+41 33 854 12 12;info@grindelwald.swiss;https://grindelwald.swiss;[{'@type': 'ImageObject', 'contentUrl': 'https://jrtagpimtsoch.sos-ch-dk-2.exoscale-cdn.com/catalog/9/5/f/5/95f5a9248f3f4e3d151a8ad9fd487527e08dc570__W0A5290_by.davidbirri.jpg'}];2024-11-27T09:26:58+01:00
ccd31282-8f26-411d-85af-b43cd067b954;BOB - Berner Oberland Bahn ;Interlaken Ost - Grindelwald ;<p><a href="http://https://www.google.com/maps/search/bahnhof+grindelwald/@46.6243063,8.0313945,880m/data=!3m2!1e3!4b1?entry=ttu&amp;g_ep=EgoyMDI1MDIxMi4wIKXMDSoASAFQAw%3D%3D" style="font-weight: bold;">Zum Ziel navigieren ( Google Maps) </a><br></p><p><br></p><p>Die Berner Oberland-Bahn, eine charmante Schmalspurbahn, verbindet Interlaken Ost mit den malerischen Orten Grindelwald und Lauterbrunnen. Seit ihrer Eröffnung 1890 hat sie sich stetig weiterentwickelt und bietet heute moderne Niederflurfahrzeuge im Halbstundentakt. Die blau-gelben Züge schlängeln sich durch die atemberaubenden Lütschinentäler und bieten dir einen bequemen und barrierefreien Zugang zu den schönsten Ecken des Berner Oberlands. Ein Muss für alle, die die Schweizer Alpen hautnah erleben möchten!</p>;8.03261154680498;46.624483218583435;3818;Grindelwald;+41 33 828 72 33;https://www.jungfrau.ch;[{'@type': 'ImageObject', 'contentUrl': 'https://jrtagpimtsoch.sos-ch-dk-2.exoscale-cdn.com/catalog/1/7/d/5/17d5c145814a1c3d882968de553634e1fa6e85fc_BOB_Zug_mit_Blumen_und_Dorf.jpg'}];2025-05-27T08:41:27+02:00
d70268c3-5dd9-4634-8b35-27d9b0f22d65;Angeln im Haslital;Ein Fischereigebiet von enormer Vielfalt auf kleinstem Raum;Von den grossen Alpenseen Thuner- und Brienzersee über hochalpine Quellbäche und wildrauschende Gebirgsflüsse bis hin zu versteckten Bergseen ist im Haslital alles zu finden. Hier schlägt jedes Fischer-Herz höher!

Während die Alpenseen in erster Linie heimische Seeforellen und Felchen, jedoch auch schöne Hecht- und Barschbestände beherbergen, tummeln sich in den kalten und sauerstoffreichen Hochgebirgsseen hauptsächlich kanadische Seesaiblinge (Namaycush). Viele Hochgebirgsseen verfügen über ausgezeichnete Bestände an Bachsaiblingen, Bach- und Regenbogenforellen sowie vereinzelt auch heimische Seesaiblinge. Die Schönheit der Fliessgewässer lassen vor allem die Herzen der Fliegenfischer höher schlagen. Das glasklare Wasser ermöglicht eine erstklassige Trockenfischerei auf Sicht! In den Pools tummeln sich naturgewachsene Bachforellen, farbenfrohe Bachsaiblinge und in tieferen Lagen vereinzelt auch Aeschen.


Das Fischereigesetz des Kantons Bern kennt drei verschiedene Fischereiberechtigungen
1. DAS FREIANGELRECHT:
Mit einer einzigen Angelrute und einer einfachen Angel (keine Drillinge) darf am Brienzer- und Thunersee vom Ufer ohne Patent gefischt werden. Beachte dabei dringend das in der Schweiz gültige Tierschutzgesetz, welches die Verwendung von Haken mit Widerhaken verbietet! Alle anderen Gewässer sind patentpflichtig!

2. DAS KANTONALE PATENT
Inhaber*innen eines kantonalen Patents (Tages- oder Wochenkarte) sind berechtigt, in den im Patent aufgeführten Gewässern zu fischen. Im Haslital sind dies folgende Bergseen und Fliessgewässer: Engstlensee, Gelmersee, Mattenalpsee, Räterichsbodensee, Brienzersee, Aare*, Reichenbach*, Urbach**. Diese Gewässer dürfen nur am Montag, Mittwoch und Samstag befischt werden.

3. PRIVAT-PACHTGEWÄSSER
Zum Schutz dieser naturnah bewirtschafteten Gebirgsbäche vor Überfischung, sind Tageskarten – nur in begrenzter Anzahl – bei der Reichenbach Lodge in Meiringen erhältlich (reichenbachlodge@bluewin.ch). Eine frühzeitige Reservation der entsprechenden Lizenzen für Privatpachtgewässer wird deshalb empfohlen.

VERKAUFSSTELLEN KANTONALER FISCHEREIPATENTE
- Tourist Center Grimseltor, Tel. +41 33 982 26 60
- Reichenbach Lodge, Tel. +41 33 971 22 59
- Hotel Engstlenalp, Tel. +41 33 975 13 61
- Brienz Tourismus, Tel. +41 33 952 80 88

FISCHEREIBEDARF
Bühler Spielwaren/Haushalt
Bahnhofstrasse 13,
3860 Meiringen

Patentausgabe, Fischereibedarf, Guidings & Kurse:
Reichenbach Lodge
Reichenbachsäge,
3860 Meiringen
Tel. +41 33 971 22 59,
info@reichenbachlodge.ch;8.1842711;46.7273586;Bahnhofplatz 12;3860;Meiringen;+41 33 972 50 50;info@haslital.swiss;https://haslital.swiss;[{'@type': 'ImageObject', 'contentUrl': 'https://jrtagpimtsoch.sos-ch-dk-2.exoscale-cdn.com/catalog/9/1/f/8/91f8dd6fe3d1c2d4e7f831efcfb53f0652d3a662_Grimselsee_Haslital_Tourismus.jpg'}];2024-12-09T15:50:31+01:00
d95fb014-fdfa-46f3-b0eb-120f6be99726;Paragliding Jungfrau;Tandemflüge vor Eiger, Mönch und Jungfrau;Erlebe die Jungfrau Region bei einem Tandem-Gleitschirmflug aus der Adlerperspektive.

Gemeinsam mit deinem Tandempilot läufst du ein paar Schritte den Hang hinunter und schon schwebst du in der Luft und geniesst die spektakuläre Aussicht auf die Eigernordwand und die Bergwelt der Jungfrau Region.;8.0416427;46.6250951;Dorfstrasse 187;3818;Grindelwald;+41 79 779 90 00;tandem@paragliding-jungfrau.ch;https://paragliding-jungfau.ch;[{'@type': 'ImageObject', 'contentUrl': 'https://jrtagpimtsoch.sos-ch-dk-2.exoscale-cdn.com/catalog/3/0/e/c/30ecc70f21a8523d2a010e130b190ced59cff119_paragliding_jungfrau__4_.jpg'}];2025-04-09T08:51:24+02:00
dd968301-9c0b-4981-93cd-1dfb231aaa30;Tipidorf Haslital;Übernachtung im Tipidorf Haslital;Keine Hektik, kein Strom, Wasser von der eigenen Quelle. Viel Platz zum Spielen, Herumtollen und Sein. Ein Naturerlebnis, dass Sie nicht vergessen werden!

Das Tipidorf befindet sich an schöner Lage auf der Sonnenseite des Haslitals zwischen Meiringen und dem Brünigpass. Idyllisch gelegen in einer Waldlichtung, entfaltet sich zusammen mit den Tipis ein aussergewöhnliches Ambiente.

Ruhige Lage in purer Natur, fernab von der Zivilisation, zeichnen diesen speziellen Kraftort aus.
Verbringen Sie eine Nacht im Tipizelt auf der Brunnenfluh. Dieser Platz ist ein Kraftort, der sich durch Ruhe und unberührte Natur auszeichnet. Am Morgen werden Sie durch den Gesang der Waldvögel geweckt und spüren die ersten wärmenden Sonnenstrahlen auf der Haut. Nachdem Körper und Geist im Grünen erwachen durften, erwartet Sie ein leckeres Frühstück, mit regionalen Produkten.

Suchen Sie das passende Ausflugsziel für Ihre Schulklasse im Berner Oberland? Dann sind Sie bei uns genau am richtigen Ort. Hier können die Kinder sich frei bewegen und lernen was sie alles in der Natur unternehmen können.;8.153851556721989;46.7467007;Lenggasse 4;3860;Meiringen;+41 76 572 54 72;info@hasli-aktiv.ch;https://hasli-aktiv.ch/de/home/welcome;[{'@type': 'ImageObject', 'contentUrl': 'https://jrtagpimtsoch.sos-ch-dk-2.exoscale-cdn.com/catalog/7/4/f/c/74fc4284a3438e4bef0e8eabee5bfafeaaac8e32_Tipidorf_11_7362.jpg'}];2025-06-10T15:33:35+02:00
ddc17f03-61e4-4229-9ba2-68ecf5de41b8;Indoor Spielplatz Mägisalp;Das Kinderparadies am Hasliberg.;Was machen bei Regenwetter? Im Bergrestaurant Mägisalp wartet der Indoorspielplatz darauf, erkundet zu werden. Die Erwachsenen können sich derweilen kulinarisch verwöhnen lassen. Bis bald am Berg!

Rutsche mit Bällebad, Cuboro Spiel, Zeichnungstische, Tischfussball, Bücherecke, Spieltische uvm.;8.236822485923769;46.749087747981676;CH - 6084 ;Hasliberg ;+41 33 550 50 50;info@meiringen-hasliberg.ch;https://meiringen-hasliberg.ch;[{'@type': 'ImageObject', 'contentUrl': 'https://jrtagpimtsoch.sos-ch-dk-2.exoscale-cdn.com/catalog/3/b/6/0/3b6016a6f5b57ad4300e421bcfa3cec487355e9b_Indoorspielplatz.jpg'}];2025-08-25T09:33:50+02:00
e41154dd-5eca-4b46-8def-b4906b659167;Öffentliche Toilette Pfingsteggbahn;Öffentlich zugängliche Toilette bei der Pfingsteggbahn.;<p class="ql-align-justify"><strong><a href="https://www.google.ch/maps/place/Luftseilbahn+Grindelwald+Pfingstegg/@46.6232587,8.046244,110m/data=!3m1!1e3!4m14!1m7!3m6!1s0x478f9b998ec92c7f:0xc89d3c8f60291e03!2sLuftseilbahn+Grindelwald+Pfingstegg!8m2!3d46.6232108!4d8.046915!16s%2Fg%2F1222c9qw!3m5!1s0x478f9b998ec92c7f:0xc89d3c8f60291e03!8m2!3d46.6232108!4d8.046915!16s%2Fg%2F1222c9qw?hl=de&amp;entry=ttu&amp;g_ep=EgoyMDI1MDQwOS4wIKXMDSoASAFQAw%3D%3D" rel="noopener noreferrer" target="_blank">Zum Ziel navigieren (Google Maps)</a></strong></p><p></p><p>Die Toilettenanlage befindet gleich neben der Talstation der Pfinsteggbahn auf der linken Seite.</p>;8.046671576887894;46.62343196534023;3818;Grindelwald;+41 33 854 12 12;info@grindelwald.swiss;https://grindelwald.swiss/de/;[{'@type': 'ImageObject', 'contentUrl': 'https://jrtagpimtsoch.sos-ch-dk-2.exoscale-cdn.com/catalog/2/f/c/0/2fc0aee8b274aecb1d78b78d40452f0fa31709da_DSC05227.JPG'}];2025-05-22T14:42:18+02:00
e59f30fc-375d-4cca-b924-6dce9ba29c5d;Helikopter-Rundflüge mit Air-Glaciers;Geniesse die atemberaubende Bergwelt aus der Luft.;Air-Glaciers wurde 1965 aus dem Wunsch heraus gegründet, Leben zu retten. Heute betreibt das Unternehmen sechs Basen in der ganzen Schweiz, von denen aus sowohl zu Rettungseinsätzen, wie auch zu Passagier- und Transportflügen gestartet wird. Die Basis in Lauterbrunnen wurde 1972 eröffnet und bietet folgende Dienstleistungen an:

Transportflüge aller Art
Taxiflüge
Rundflüge
Heliskiing
Schulungsflüge
Rettungsflüge;7.913204923333735;46.5853876;3822;Lauterbrunnen;+41 33 856 05 60;agl@air-glaciers.ch;https://www.air-glaciers.ch;[{'@type': 'ImageObject', 'contentUrl': 'https://jrtagpimtsoch.sos-ch-dk-2.exoscale-cdn.com/catalog/a/e/d/9/aed9a29ac63b274b0199b3ccfecfee96f41da116_csm_Air_Glacier2_029e5687de.jpg'}];2024-12-09T15:50:34+01:00
ec82afc0-c729-42c0-8d95-d9a588725692;Spielplatz Eiger+;Gleich im Dorfkern neben dem Sportzentrum können sie diesen Abenteuerspielplatz finden. Von Schaukeln, Klettergerüsten bis zu einem Tisch für Tischtennis können Sie alles finden. Anschliessend an den Spielplatz befindet sich eine kleine Wiese, auf der sich die Eltern etwas Ruhe gönnen können, während sich die Kinder austoben.;8.035860700098638;46.62355275;3818;Grindelwald;+41338541414 ;gemeindeverwaltung@gemeinde-grindelwald.ch;[{'@type': 'ImageObject', 'contentUrl': 'https://jrtagpimtsoch.sos-ch-dk-2.exoscale-cdn.com/catalog/2/4/c/d/24cdf4c46eeaa43130151d0f28e49fe6bd2f050c_2207_4893_by.davidbirri.jpg'}];2025-08-25T09:33:38+02:00
ee26d880-0bf8-4b23-9fa3-19d7bb3b4c96;Grillstelle Gletschersand;Vom Parkplatz beim Hotel Wetterhorn in 15 Min. zu Fuss erreichbar. Die Schutzhütte ist mit Tischen und Bänken ausgestattet. Grosse Grillroste und Aufhängung für Kessel sowie Brennholz sind vorhanden. Geeignet für Familie, weil er mit dem neu eröffneten interaktiven Challifloh-Rätselpfad kombiniert werden kann. Oder für grosse Gruppen, auch abends, da leicht erreichbar.;8.078105449676515;46.63138911527258;3818;Grindelwald;0338541212;info@grindelwald.swiss;[{'@type': 'ImageObject', 'contentUrl': 'https://jrtagpimtsoch.sos-ch-dk-2.exoscale-cdn.com/catalog/9/5/d/6/95d6645298236250273cc320dff62ced91b86ded_Gletschersand.png'}];2024-11-20T14:22:16+01:00
f2c51cad-d598-4f18-b3bd-da8b80c448f2;Sherlock Holmes Museum;Auf den Spuren des Meisterdetektivs.;Diese Ausstellung gibt interessante Einblicke in die Kriminal- und Polizeigeschichte der 90er-Jahre des 19. Jahrhunderts in London. Sie zeigt, dass Scotland Yard heute noch, im Zeitalter der modernsten Computertechniken, an den Vorstellungen von Holmes, dem Meisterdetektiv, festhält.

Darüber hinaus zeigt die Ausstellung über Holmes und Watson zusammengetragenes Material, die ständige Flut von Zuschriften, die täglich in der Baker Street 221 b eingingen.

Diese Ausstellung, in welcher vornehmlich Leihgaben zu sehen sind, ist eine Ergänzung zu dem ständigen Hauptausstellungsstück des Museums, dem rekonstruierten, umgestalteten Salon des Hauses in der Baker Street 221 b, wo Holmes und Watson so viele Jahre zu Hause waren. Die Entwicklung dieses Raums, des im Jahre 1780 erbauten Hauses, wird getrennt beschrieben, in einem mehrsprachigen Tonbandkommentar. Die erste authentische und weltweit einzige Nachbildung seines Wohnzimmers an der Baker Street 221b geht unter die Haut.;8.187345;46.7269404;Bahnhofstrasse 26;3860;Meiringen;+41 33 972 50 00;info@sherlockholmes.ch;https://sherlockholmes.ch/de/Info/Museum;[{'@type': 'ImageObject', 'contentUrl': 'https://jrtagpimtsoch.sos-ch-dk-2.exoscale-cdn.com/catalog/e/5/b/d/e5bdb0091209ea338a7a7f0d44a64c0ed5601a6d_Sherlock_Holmes_Museum_2_by._Kehrli.jpg'}];2024-12-09T15:50:34+01:00
f358ff24-e553-4fcc-a398-469b5ed5f68e;Bergbauern-Challenge;Die Bergbauern-Challenge wird bei einem wunderschönen, uralten Bauernhaus durchgeführt - ein passendes Ambiente für Ihren Anlass!;<p>Sie erleben in kleinen Teams die verschiedensten Alltagsarbeiten aus vergangenen Zeiten: Sie stampfen Butter im "Holzkessi", melken eine (künstliche) Kuh, sägen mit einer Zweimannssäge. Es gibt ein Mistgabel- und Hufeisenwerfen und ein Wettnageln. Alle Aktivitäten lassen sich als Workshop oder als Wettkampf durchführen. Dabei sind nicht Einzelkämpfer, sondern starke Teams gefragt. <br><br>Je nach Wunsch und Buchung werden Sie am Mittag mit hausgemachten Produkten vom Bauernhof verwöhnt. Beispielsweise mit Älplermagronen, die nicht nur zu alten Zeiten geschätzt wurden.&nbsp;<br><br>Sie möchten ein Stück Haslital nach Hause nehmen? Im Käsekeller bietet der Bauer Alpkäse von der Kaltenbrunnenalp an.&nbsp;<br><br>Egal ob Schön- oder Schlechtwetter - im gemütlichen Bauernhaus hat es genug Platz um die Bergbauern-Challenge im Trockenen durchzuführen.&nbsp;&nbsp;</p>;8.1540826;46.7465502;Lenggasse 4;3860;Meiringen;+41 76 572 54 72;info@hasli-aktiv.ch;https://hasli-aktiv.ch/de/home/welcome;[{'@type': 'ImageObject', 'contentUrl': 'https://jrtagpimtsoch.sos-ch-dk-2.exoscale-cdn.com/catalog/f/c/f/6/fcf615e20111ec838a80530c9fd59f3364ee8017_Bauer_sucht_Buttertalent.jpg'}];2024-12-09T15:50:34+01:00
fa355f78-3df5-4508-8cd0-5615f46ab58c;Grillstelle Grindel Läger;<p>Die Feuerstelle bietet eine spektakuläre Aussicht an sonniger Lage. Ein Besuch ist eher im Herbst zu empfehlen (im Frühling liegt oft noch Schnee).</p><p>Zugang: Zur Feuerstelle findet man über den Wanderweg zwischen Schreckfeld und Grosse Scheidegg. Der Wanderweg folgt der geteerten Strasse und ist gut begehbar. Alternativ kann man auch dem Wanderweg zwischen First und Grosse Scheidegg folgen. Die Feuerstelle liegt etwas unterhalb dieses Wanderweges.</p>;8.07897448539734;46.664753067170125;3818;Grindelwald;0338541212;info@grindelwald.swiss;[{'@type': 'ImageObject', 'contentUrl': 'https://jrtagpimtsoch.sos-ch-dk-2.exoscale-cdn.com/catalog/c/7/8/e/c78eadef64c7ce42cc4145b21a1893685980fab6_Grindel_L__ger.png'}];2024-11-20T14:22:16+01:00
